[{"id":92,"zip_code":"01300","name":"GameZone Express","gps_lat":45.802649,"gps_lng":5.681342,"city":"Chazey-Bons"},{"id":109,"zip_code":"01400","name":"PixelPlay Emporium","gps_lat":46.15212268750001,"gps_lng":5.087552125,"city":"Condeissiat"},{"id":117,"zip_code":"01290","name":"NerdHaven Games","gps_lat":46.23802942622952,"gps_lng":4.83493327868852,"city":"Cormoranche-sur-Saône"},{"id":122,"zip_code":"01320","name":"RetroRush Arcade","gps_lat":45.96586639024392,"gps_lng":5.19331107317073,"city":"Crans"},{"id":137,"zip_code":"01270","name":"QuestQuest Gaming","gps_lat":46.42420143312104,"gps_lng":5.29311321656051,"city":"Domsure"},{"id":138,"zip_code":"01590","name":"GameWorld Unlimited","gps_lat":46.31347978102192,"gps_lng":5.64523664233577,"city":"Dortan"},{"id":253,"zip_code":"01510","name":"VirtualVerse Electronics","gps_lat":45.83268056000002,"gps_lng":5.5402864,"city":"Ordonnaz"},{"id":263,"zip_code":"01540","name":"PixelPulse Game Hub","gps_lat":46.24887068965517,"gps_lng":4.97028350574713,"city":"Perrex"},{"id":360,"zip_code":"01170","name":"GeekGrotto Collective","gps_lat":46.29180965517242,"gps_lng":6.07075620689655,"city":"Ségny"},{"id":398,"zip_code":"01570","name":"EpicGamer Bazaar","gps_lat":46.35654086956521,"gps_lng":4.86409043478261,"city":"Vésines"},{"id":462,"zip_code":"02850","name":"CosmicConsole Galaxy","gps_lat":49.09686359999998,"gps_lng":3.5583081,"city":"Barzy-sur-Marne"},{"id":566,"zip_code":"02860","name":"BitBooster Boutique","gps_lat":49.47239256410257,"gps_lng":3.66895064102564,"city":"Chamouille"},{"id":649,"zip_code":"02880","name":"RetroRealm Retrocade","gps_lat":49.40767722222223,"gps_lng":3.365015,"city":"Crouy"},{"id":658,"zip_code":"02200","name":"GameGeek Guild","gps_lat":49.41793695652174,"gps_lng":3.24295492753623,"city":"Cuisy-en-Almont"},{"id":710,"zip_code":"02460","name":"NostalgiaNook","gps_lat":49.1764512,"gps_lng":3.14054972,"city":"La Ferté-Milon"},{"id":721,"zip_code":"02110","name":"ArcaneArcade Emporium","gps_lat":49.90067033707867,"gps_lng":3.39412629213483,"city":"Fonsomme"},{"id":736,"zip_code":"02800","name":"PixelPower Playhouse","gps_lat":49.63023085714285,"gps_lng":3.42613228571429,"city":"Fressancourt"},{"id":749,"zip_code":"02350","name":"GameHaven MegaStore","gps_lat":49.68432545454545,"gps_lng":3.8518951136363597,"city":"Goudelancourt-lès-Pierrepont"},{"id":767,"zip_code":"02140","name":"TechTrek Video Games","gps_lat":49.80300102564104,"gps_lng":3.9761432051282,"city":"Harcigny"},{"id":799,"zip_code":"02590","name":"CyberScape Arcade","gps_lat":49.83091652777777,"gps_lng":3.0749825,"city":"Lanchy"},{"id":815,"zip_code":"02260","name":"VRVortex Haven","gps_lat":49.95237909090908,"gps_lng":3.88161313131313,"city":"Lerzy"},{"id":931,"zip_code":"02200","name":"GameRush Universe","gps_lat":49.30161654545456,"gps_lng":3.43057072727273,"city":"Nampteuil-sous-Muret"},{"id":970,"zip_code":"02390","name":"QuantumQuarters","gps_lat":49.82796629213487,"gps_lng":3.51234842696629,"city":"Origny-Sainte-Benoite"},{"id":991,"zip_code":"02310","name":"PixelNest Gaming","gps_lat":48.955065,"gps_lng":3.2807432,"city":"Pavant"},{"id":1068,"zip_code":"02810","name":"EpicEdge Gaming Zone","gps_lat":49.11592285714284,"gps_lng":3.21178797619048,"city":"Saint-Gengoulph"},{"id":1078,"zip_code":"02250","name":"ChronoCircuit Games","gps_lat":49.71850794392522,"gps_lng":3.87801560747664,"city":"Saint-Pierremont"},{"id":1158,"zip_code":"02590","name":"NeoPixel Nexus","gps_lat":49.82479086956521,"gps_lng":3.133695,"city":"Vaux-en-Vermandois"},{"id":1182,"zip_code":"02210","name":"GameCrafters Haven","gps_lat":49.18605213740461,"gps_lng":3.30229145038168,"city":"Vichel-Nanteuil"},{"id":1201,"zip_code":"02130","name":"PixelPulse Pro","gps_lat":49.17372470588236,"gps_lng":3.53675741176471,"city":"Villers-sur-Fère"},{"id":1241,"zip_code":"03700","name":"WizardWorks Games","gps_lat":46.11416925675677,"gps_lng":3.39510945945946,"city":"Bellerive-sur-Allier"},{"id":1278,"zip_code":"03110","name":"PixelPrism Palace","gps_lat":46.16108212499999,"gps_lng":3.395006875,"city":"Charmeil"},{"id":1292,"zip_code":"03230","name":"QuestCraze Arcade","gps_lat":46.60774887573964,"gps_lng":3.56717118343195,"city":"Chevagnes"},{"id":1366,"zip_code":"03500","name":"CosmicCart Video Games","gps_lat":46.30913681818181,"gps_lng":3.24992666666667,"city":"Louchy-Montfand"},{"id":1393,"zip_code":"03470","name":"ByteBurst Boutique","gps_lat":46.43649292592594,"gps_lng":3.8216341851851903,"city":"Monétay-sur-Loire"},{"id":1444,"zip_code":"03400","name":"RetroRush Zone","gps_lat":46.68349836257311,"gps_lng":3.40321830409357,"city":"Saint-Ennemond"},{"id":1471,"zip_code":"03390","name":"GameFusion Guild","gps_lat":46.35952309999999,"gps_lng":2.90487965,"city":"Saint-Priest-en-Murat"},{"id":1493,"zip_code":"03140","name":"NostalgiaSphere","gps_lat":46.20393605042015,"gps_lng":3.14693487394958,"city":"Taxat-Senat"},{"id":1509,"zip_code":"03140","name":"ArcaneAttic Emporium","gps_lat":46.20995891566265,"gps_lng":3.18977698795181,"city":"Ussel-d'Allier"},{"id":1530,"zip_code":"03430","name":"PixelParadox Playhouse","gps_lat":46.39430515503879,"gps_lng":2.8423853875969,"city":"Villefranche-d'Allier"},{"id":1542,"zip_code":"04420","name":"GameFreak MegaStore","gps_lat":44.10968518867922,"gps_lng":6.32592301886792,"city":"Archail"},{"id":1581,"zip_code":"04250","name":"TechSprint Video Games","gps_lat":44.32876807339449,"gps_lng":6.08000541284404,"city":"Clamensane"},{"id":1602,"zip_code":"04270","name":"CyberCraft Arcade","gps_lat":43.94076980392157,"gps_lng":6.1930656372549,"city":"Estoublon"},{"id":1646,"zip_code":"04170","name":"VRVisions Haven","gps_lat":43.99813311111114,"gps_lng":6.52727911111111,"city":"La Mure-Argens"},{"id":1698,"zip_code":"06260","name":"GameBlitz Universe","gps_lat":43.91296588235295,"gps_lng":6.92507666666666,"city":"Saint-Pierre"},{"id":1797,"zip_code":"05130","name":"QuantumQuarters","gps_lat":44.50661131578947,"gps_lng":6.1058447368421,"city":"Jarjayes"},{"id":1815,"zip_code":"05700","name":"PixelNest Gaming","gps_lat":44.38858118644067,"gps_lng":5.7474691525423705,"city":"Montrond"},{"id":1821,"zip_code":"05500","name":"EpicEdge Gaming Zone","gps_lat":44.70336551724139,"gps_lng":6.00321836206897,"city":"Le Noyer"},{"id":1881,"zip_code":"05240","name":"ChronoCircuit Games","gps_lat":44.959961496063,"gps_lng":6.57541606299212,"city":"La Salle-les-Alpes"},{"id":1883,"zip_code":"05160","name":"NeoPixel Nexus","gps_lat":44.48003957446807,"gps_lng":6.32333,"city":"Le Sauze-du-Lac"},{"id":1916,"zip_code":"06450","name":"GameCrafters Haven","gps_lat":44.05688960784315,"gps_lng":7.36505166666667,"city":"Belvédère"},{"id":1928,"zip_code":"06510","name":"PixelPulse Pro","gps_lat":43.81264561403506,"gps_lng":7.15192988304094,"city":"Le Broc"},{"id":1978,"zip_code":"06420","name":"WizardWorks Games","gps_lat":44.19141612903226,"gps_lng":7.08362686217009,"city":"Isola"},{"id":1981,"zip_code":"06260","name":"PixelPrism Palace","gps_lat":44.00462898989899,"gps_lng":7.04194818181818,"city":"Lieuche"},{"id":2028,"zip_code":"06660","name":"QuestCraze Arcade","gps_lat":44.25928893129768,"gps_lng":6.92801099236642,"city":"Saint-Étienne-de-Tinée"},{"id":2053,"zip_code":"06830","name":"CosmicCart Video Games","gps_lat":43.87403897142857,"gps_lng":7.13607651428571,"city":"Tourette-du-Château"},{"id":2085,"zip_code":"07410","name":"ByteBurst Boutique","gps_lat":45.039407535545,"gps_lng":4.63079497630332,"city":"Arlebosc"},{"id":2120,"zip_code":"07440","name":"RetroRush Zone","gps_lat":44.95645206730769,"gps_lng":4.75209389423077,"city":"Champis"},{"id":2190,"zip_code":"07530","name":"GameFusion Guild","gps_lat":44.8011373880597,"gps_lng":4.28445179104478,"city":"Lachamp-Raphaël"},{"id":2304,"zip_code":"07410","name":"NostalgiaSphere","gps_lat":45.0745454,"gps_lng":4.60726385,"city":"Saint-Félicien"},{"id":2340,"zip_code":"07170","name":"ArcaneAttic Emporium","gps_lat":44.48197900900902,"gps_lng":4.48808779279279,"city":"Saint-Maurice-d'Ibie"},{"id":2344,"zip_code":"07200","name":"PixelParadox Playhouse","gps_lat":44.699284295302,"gps_lng":4.43361120805369,"city":"Saint-Michel-de-Boulogne"},{"id":2550,"zip_code":"08300","name":"GameFreak MegaStore","gps_lat":49.55265500000001,"gps_lng":4.29566435185185,"city":"Écly"},{"id":2556,"zip_code":"08260","name":"TechSprint Video Games","gps_lat":49.89770761538465,"gps_lng":4.40467546153846,"city":"Éteignières"},{"id":2631,"zip_code":"08310","name":"CyberCraft Arcade","gps_lat":49.40509978494624,"gps_lng":4.37885913978495,"city":"Juniville"},{"id":2666,"zip_code":"08260","name":"VRVisions Haven","gps_lat":49.87931487499999,"gps_lng":4.4318755,"city":"Maubert-Fontaine"},{"id":2707,"zip_code":"08160","name":"GameBlitz Universe","gps_lat":49.71369688172045,"gps_lng":4.80072096774194,"city":"Nouvion-sur-Meuse"},{"id":2737,"zip_code":"08220","name":"PixelWave Arcade","gps_lat":49.65543910256411,"gps_lng":4.13591756410256,"city":"Renneville"},{"id":2804,"zip_code":"08390","name":"RetroRevival","gps_lat":49.55036927536229,"gps_lng":4.92277608695652,"city":"Stonne"},{"id":2819,"zip_code":"08460","name":"GameBurst Haven","gps_lat":49.71637678321679,"gps_lng":4.51168566433566,"city":"Thin-le-Moutier"},{"id":2831,"zip_code":"08400","name":"TechTrove Video Games","gps_lat":49.44250009174316,"gps_lng":4.70863403669725,"city":"Vandy"},{"id":2885,"zip_code":"09400","name":"QuantumQuarters","gps_lat":42.85178980198017,"gps_lng":1.64677811881188,"city":"Arnave"},{"id":2890,"zip_code":"09120","name":"PixelNest Gaming","gps_lat":43.06697320754719,"gps_lng":1.56609311320755,"city":"Artix"},{"id":2936,"zip_code":"09000","name":"EpicEdge Gaming Zone","gps_lat":42.95275155963302,"gps_lng":1.47348449541284,"city":"Burret"},{"id":2960,"zip_code":"09400","name":"ChronoCircuit Games","gps_lat":42.84214600000001,"gps_lng":1.6991976,"city":"Cazenave-Serres-et-Allens"},{"id":2995,"zip_code":"09190","name":"NeoPixel Nexus","gps_lat":43.03772699999998,"gps_lng":1.13904777777778,"city":"Gajan"},{"id":3010,"zip_code":"09220","name":"GameCrafters Haven","gps_lat":42.78532741935484,"gps_lng":1.5441987096774201,"city":"Illier-et-Laramade"},{"id":3088,"zip_code":"09140","name":"PixelPulse Pro","gps_lat":42.85734084033613,"gps_lng":1.23645151260504,"city":"Oust"},{"id":3112,"zip_code":"09200","name":"WizardWorks Games","gps_lat":42.95574702702702,"gps_lng":1.25678445945946,"city":"Rivèrenert"},{"id":3136,"zip_code":"09000","name":"PixelPrism Palace","gps_lat":42.90031111111109,"gps_lng":1.66950944444444,"city":"Saint-Paul-de-Jarrat"},{"id":3194,"zip_code":"09220","name":"QuestCraze Arcade","gps_lat":42.77289701298701,"gps_lng":1.50822818181818,"city":"Vicdessos"},{"id":3257,"zip_code":"10220","name":"CosmicCart Video Games","gps_lat":48.34840938547485,"gps_lng":4.4105924581005596,"city":"Brévonnes"},{"id":3265,"zip_code":"10110","name":"ByteBurst Boutique","gps_lat":48.07536209090909,"gps_lng":4.42198672727273,"city":"Celles-sur-Ource"},{"id":3295,"zip_code":"10200","name":"RetroRush Zone","gps_lat":48.26929663793104,"gps_lng":4.78741112068966,"city":"Colombé-la-Fosse"},{"id":3322,"zip_code":"10220","name":"GameFusion Guild","gps_lat":48.303914478527616,"gps_lng":4.28563601226994,"city":"Dosches"},{"id":3410,"zip_code":"10210","name":"NostalgiaSphere","gps_lat":48.00737571428573,"gps_lng":4.16288476190476,"city":"Maisons-lès-Chaource"},{"id":3436,"zip_code":"10270","name":"ArcaneAttic Emporium","gps_lat":48.24894607594938,"gps_lng":4.20335132911392,"city":"Montaulin"},{"id":3477,"zip_code":"10220","name":"PixelParadox Playhouse","gps_lat":48.32435164810694,"gps_lng":4.37917102449889,"city":"Piney"},{"id":3478,"zip_code":"10250","name":"GameFreak MegaStore","gps_lat":47.99586643564356,"gps_lng":4.48091386138614,"city":"Plaines-Saint-Lange"},{"id":3480,"zip_code":"10160","name":"TechSprint Video Games","gps_lat":48.270692345679,"gps_lng":3.65234901234568,"city":"Planty"},{"id":3484,"zip_code":"10110","name":"CyberCraft Arcade","gps_lat":48.07387278350515,"gps_lng":4.35605257731959,"city":"Polisot"},{"id":3536,"zip_code":"10180","name":"VRVisions Haven","gps_lat":48.34825924137929,"gps_lng":3.98082193103448,"city":"Saint-Lyé"},{"id":3546,"zip_code":"10130","name":"GameBlitz Universe","gps_lat":48.11340460937502,"gps_lng":3.9952637890625002,"city":"Saint-Phal"},{"id":3571,"zip_code":"10140","name":"PixelWave Arcade","gps_lat":48.30569049180327,"gps_lng":4.60211262295082,"city":"Trannes"},{"id":3573,"zip_code":"10000","name":"RetroRevival","gps_lat":48.29791025477709,"gps_lng":4.08048050955414,"city":"Troyes"},{"id":3586,"zip_code":"10700","name":"GameBurst Haven","gps_lat":48.51282533333334,"gps_lng":4.22525144444445,"city":"Vaupoisson"},{"id":3750,"zip_code":"11350","name":"TechTrove Video Games","gps_lat":42.86159304347825,"gps_lng":2.56430202898551,"city":"Duilhac-sous-Peyrepertuse"},{"id":3755,"zip_code":"11240","name":"QuantumQuarters","gps_lat":43.1000346783626,"gps_lng":2.0200466081871298,"city":"Escueillens-et-Saint-Just-de-Bélengard"},{"id":3788,"zip_code":"11250","name":"PixelNest Gaming","gps_lat":43.07230584269664,"gps_lng":2.30189651685393,"city":"Gardie"},{"id":3799,"zip_code":"11240","name":"EpicEdge Gaming Zone","gps_lat":43.13344736486489,"gps_lng":2.00294175675676,"city":"Hounoux"},{"id":3836,"zip_code":"11200","name":"ChronoCircuit Games","gps_lat":43.1774037037037,"gps_lng":2.79051370370371,"city":"Luc-sur-Orbieu"},{"id":3852,"zip_code":"11420","name":"NeoPixel Nexus","gps_lat":43.22687948717947,"gps_lng":1.84883474358974,"city":"Mayreville"},{"id":3894,"zip_code":"11590","name":"GameCrafters Haven","gps_lat":43.28680554455445,"gps_lng":2.97090227722772,"city":"Ouveillan"},{"id":3914,"zip_code":"11300","name":"PixelPulse Pro","gps_lat":43.08013150943395,"gps_lng":2.25780858490566,"city":"Pieusse"},{"id":3926,"zip_code":"11700","name":"WizardWorks Games","gps_lat":43.22329435897439,"gps_lng":2.62280435897436,"city":"Puichéric"},{"id":3977,"zip_code":"11120","name":"PixelPrism Palace","gps_lat":43.25194822222223,"gps_lng":2.92691577777778,"city":"Saint-Marcel-sur-Aude"},{"id":4022,"zip_code":"11510","name":"QuestCraze Arcade","gps_lat":42.9246469512195,"gps_lng":2.95622097560976,"city":"Treilles"},{"id":4182,"zip_code":"12380","name":"CosmicCart Video Games","gps_lat":43.81786259668512,"gps_lng":2.6360153038674,"city":"Laval-Roquecezière"},{"id":4193,"zip_code":"12330","name":"ByteBurst Boutique","gps_lat":44.47486355932206,"gps_lng":2.4631888700565,"city":"Marcillac-Vallon"},{"id":4260,"zip_code":"12200","name":"RetroRush Zone","gps_lat":44.3099036683417,"gps_lng":1.9736648743718601,"city":"La Rouquette"},{"id":4343,"zip_code":"12520","name":"GameFusion Guild","gps_lat":44.21954137614681,"gps_lng":3.04816376146789,"city":"Verrières"},{"id":4425,"zip_code":"13006","name":"NostalgiaSphere","gps_lat":43.2875818,"gps_lng":5.3808683,"city":"Marseille"},{"id":4494,"zip_code":"13880","name":"ArcaneAttic Emporium","gps_lat":43.52966162962964,"gps_lng":5.24969562962963,"city":"Velaux"},{"id":4501,"zip_code":"13470","name":"PixelParadox Playhouse","gps_lat":43.25877257142857,"gps_lng":5.56977257142857,"city":"Carnoux-en-Provence"},{"id":4507,"zip_code":"14540","name":"GameFreak MegaStore","gps_lat":49.1116638,"gps_lng":-0.2917514,"city":"Valambray"},{"id":4510,"zip_code":"14860","name":"TechSprint Video Games","gps_lat":49.24994617021277,"gps_lng":-0.23577702127660005,"city":"Amfreville"},{"id":4533,"zip_code":"14940","name":"CyberCraft Arcade","gps_lat":49.16487067567568,"gps_lng":-0.22570918918919003,"city":"Banneville-la-Campagne"},{"id":4540,"zip_code":"14620","name":"VRVisions Haven","gps_lat":48.92868965517242,"gps_lng":-0.03440758620689999,"city":"Barou-en-Auge"},{"id":4545,"zip_code":"14480","name":"GameBlitz Universe","gps_lat":49.29898161290323,"gps_lng":-0.58362983870968,"city":"Bazenville"},{"id":4573,"zip_code":"14420","name":"PixelWave Arcade","gps_lat":48.9606662385321,"gps_lng":-0.23419752293578,"city":"Bons-Tassilly"},{"id":4575,"zip_code":"14220","name":"RetroRevival","gps_lat":49.05160468571427,"gps_lng":-0.37600565714286005,"city":"Boulon"},{"id":4590,"zip_code":"14710","name":"GameBurst Haven","gps_lat":49.28738736111113,"gps_lng":-0.95555881944444,"city":"Bricqueville"},{"id":4609,"zip_code":"14740","name":"TechTrove Video Games","gps_lat":49.23906684931507,"gps_lng":-0.62391534246575,"city":"Carcagny"},{"id":4720,"zip_code":"14700","name":"QuantumQuarters","gps_lat":48.88958666666665,"gps_lng":-0.12641214814815005,"city":"Fresné-la-Mère"},{"id":4726,"zip_code":"14230","name":"PixelNest Gaming","gps_lat":49.36275702702702,"gps_lng":-1.0803587387387399,"city":"Géfosse-Fontenay"},{"id":4735,"zip_code":"14210","name":"EpicEdge Gaming Zone","gps_lat":49.03322489361701,"gps_lng":-0.4818585106383,"city":"Goupillières"},{"id":4755,"zip_code":"14250","name":"ChronoCircuit Games","gps_lat":49.14557806201551,"gps_lng":-0.64931914728682,"city":"Hottot-les-Bagues"},{"id":4815,"zip_code":"14220","name":"NeoPixel Nexus","gps_lat":48.95333655737704,"gps_lng":-0.39111163934425996,"city":"Meslay"},{"id":4817,"zip_code":"14100","name":"GameCrafters Haven","gps_lat":49.09519914634146,"gps_lng":0.18046646341463,"city":"Le Mesnil-Eudes"},{"id":4818,"zip_code":"14100","name":"PixelPulse Pro","gps_lat":49.10429200000002,"gps_lng":0.2843378,"city":"Le Mesnil-Guillaume"},{"id":4864,"zip_code":"14170","name":"WizardWorks Games","gps_lat":48.9595976923077,"gps_lng":-0.12713576923076997,"city":"Perrières"},{"id":4888,"zip_code":"14860","name":"PixelPrism Palace","gps_lat":49.22793130434783,"gps_lng":-0.26317188405797,"city":"Ranville"},{"id":4919,"zip_code":"14950","name":"QuestCraze Arcade","gps_lat":49.29516881481482,"gps_lng":0.11907088888889,"city":"Saint-Étienne-la-Thillaye"},{"id":4974,"zip_code":"14190","name":"CosmicCart Video Games","gps_lat":49.05571310679611,"gps_lng":-0.21486466019417005,"city":"Saint-Sylvain"},{"id":5069,"zip_code":"15240","name":"ByteBurst Boutique","gps_lat":45.27523442159382,"gps_lng":2.4683633933162,"city":"Auzers"},{"id":5099,"zip_code":"15320","name":"RetroRush Zone","gps_lat":44.99327747448979,"gps_lng":3.29970785714286,"city":"Clavières"},{"id":5108,"zip_code":"15110","name":"GameFusion Guild","gps_lat":44.80925857142857,"gps_lng":3.01955514285714,"city":"Deux-Verges"},{"id":5109,"zip_code":"15300","name":"NostalgiaSphere","gps_lat":45.16977360594797,"gps_lng":2.80729550185874,"city":"Dienne"},{"id":5264,"zip_code":"15100","name":"ArcaneAttic Emporium","gps_lat":45.08974378947372,"gps_lng":3.2655067368421,"city":"Soulages"},{"id":5280,"zip_code":"15400","name":"PixelParadox Playhouse","gps_lat":45.26810133047211,"gps_lng":2.60595017167382,"city":"Valette"},{"id":5294,"zip_code":"15120","name":"GameFreak MegaStore","gps_lat":44.65430175824174,"gps_lng":2.4357964285714298,"city":"Vieillevie"},{"id":5310,"zip_code":"16140","name":"TechSprint Video Games","gps_lat":45.85736853846154,"gps_lng":0.05815823076923,"city":"Ambérac"},{"id":5338,"zip_code":"16700","name":"CyberCraft Arcade","gps_lat":46.05179505747127,"gps_lng":0.17325781609195,"city":"Bernac"},{"id":5431,"zip_code":"16200","name":"VRVisions Haven","gps_lat":45.71718282608696,"gps_lng":-0.08293891304348,"city":"Fleurac"},{"id":5454,"zip_code":"16290","name":"GameBlitz Universe","gps_lat":45.67315903225808,"gps_lng":0.00690623655914,"city":"Hiersac"},{"id":5455,"zip_code":"16490","name":"PixelWave Arcade","gps_lat":46.05218105960262,"gps_lng":0.57680874172185,"city":"Hiesse"},{"id":5487,"zip_code":"16320","name":"RetroRevival","gps_lat":45.50963859504134,"gps_lng":0.25880173553719,"city":"Magnac-Lavalette-Villars"},{"id":5493,"zip_code":"16500","name":"GameBurst Haven","gps_lat":45.9285528467153,"gps_lng":0.62094284671533,"city":"Manot"},{"id":5555,"zip_code":"16110","name":"TechTrove Video Games","gps_lat":45.70246759259262,"gps_lng":0.39076046296296,"city":"Rancogne"},{"id":5563,"zip_code":"16320","name":"QuantumQuarters","gps_lat":45.45455595141701,"gps_lng":0.23862765182186,"city":"Ronsenac"},{"id":5705,"zip_code":"17400","name":"PixelNest Gaming","gps_lat":45.8926724031008,"gps_lng":-0.50204302325581,"city":"Asnières-la-Giraud"},{"id":5711,"zip_code":"17440","name":"EpicEdge Gaming Zone","gps_lat":46.13263137614677,"gps_lng":-1.11810302752294,"city":"Aytré"},{"id":5752,"zip_code":"17770","name":"ChronoCircuit Games","gps_lat":45.80260647058827,"gps_lng":-0.47925333333333,"city":"Brizambourg"},{"id":5841,"zip_code":"17500","name":"NeoPixel Nexus","gps_lat":45.38079257861637,"gps_lng":-0.38185226415094,"city":"Fontaines-d'Ozillac"},{"id":5855,"zip_code":"17260","name":"GameCrafters Haven","gps_lat":45.542228313253,"gps_lng":-0.6308738554216899,"city":"Givrezac"},{"id":5860,"zip_code":"17120","name":"PixelPulse Pro","gps_lat":45.60370107692306,"gps_lng":-0.826765,"city":"Grézac"},{"id":5861,"zip_code":"17620","name":"WizardWorks Games","gps_lat":45.79255676328505,"gps_lng":-0.95543516908213,"city":"La Gripperie-Saint-Symphorien"},{"id":5863,"zip_code":"17540","name":"PixelPrism Palace","gps_lat":46.18809381578947,"gps_lng":-0.87108026315789,"city":"Le Gué-d'Alleré"},{"id":5897,"zip_code":"17800","name":"QuestCraze Arcade","gps_lat":45.51394810457516,"gps_lng":-0.46475169934641003,"city":"Marignac"},{"id":5923,"zip_code":"17113","name":"CosmicCart Video Games","gps_lat":45.71271274725276,"gps_lng":-1.02360582417582,"city":"Mornac-sur-Seudre"},{"id":6080,"zip_code":"17370","name":"ByteBurst Boutique","gps_lat":45.8348486554622,"gps_lng":-1.2203404201680699,"city":"Saint-Trojan-les-Bains"},{"id":6086,"zip_code":"17130","name":"RetroRush Zone","gps_lat":45.34806148148149,"gps_lng":-0.48012259259259005,"city":"Salignac-de-Mirambeau"},{"id":6163,"zip_code":"18170","name":"GameFusion Guild","gps_lat":46.64258026666663,"gps_lng":2.35931768888889,"city":"Ardenais"},{"id":6167,"zip_code":"18260","name":"NostalgiaSphere","gps_lat":47.426562,"gps_lng":2.741659,"city":"Assigny"},{"id":6187,"zip_code":"18200","name":"ArcaneAttic Emporium","gps_lat":46.70467677966101,"gps_lng":2.46960644067797,"city":"Bouzais"},{"id":6259,"zip_code":"18600","name":"PixelParadox Playhouse","gps_lat":46.87434527777778,"gps_lng":2.93112756944444,"city":"Grossouvre"},{"id":6346,"zip_code":"18170","name":"GameFreak MegaStore","gps_lat":46.67457798850575,"gps_lng":2.16233034482759,"city":"Rezay"},{"id":6358,"zip_code":"18230","name":"TechSprint Video Games","gps_lat":47.10021897196263,"gps_lng":2.35443378504673,"city":"Saint-Doulchard"},{"id":6403,"zip_code":"18300","name":"CyberCraft Arcade","gps_lat":47.33415714285713,"gps_lng":2.68662932330827,"city":"Sens-Beaujeu"},{"id":6425,"zip_code":"18110","name":"VRVisions Haven","gps_lat":47.16097513333334,"gps_lng":2.39490453333333,"city":"Vasselay"},{"id":6476,"zip_code":"19100","name":"GameBlitz Universe","gps_lat":45.13981899696049,"gps_lng":1.5179145592705199,"city":"Brive-la-Gaillarde"},{"id":6496,"zip_code":"19390","name":"PixelWave Arcade","gps_lat":45.4519813809524,"gps_lng":1.88430028571429,"city":"Chaumeil"},{"id":6514,"zip_code":"19220","name":"RetroRevival","gps_lat":45.17102422310755,"gps_lng":2.08105689243028,"city":"Darazac"},{"id":6554,"zip_code":"19130","name":"GameBurst Haven","gps_lat":45.34118273809521,"gps_lng":1.37231577380952,"city":"Lascaux"},{"id":6561,"zip_code":"19120","name":"TechTrove Video Games","gps_lat":44.93821970000001,"gps_lng":1.8063403999999998,"city":"Liourdres"},{"id":6666,"zip_code":"19320","name":"QuantumQuarters","gps_lat":45.25305681818183,"gps_lng":2.10000847107438,"city":"Saint-Merd-de-Lapleau"},{"id":6669,"zip_code":"19160","name":"PixelNest Gaming","gps_lat":45.31975832335329,"gps_lng":2.20537251497006,"city":"Saint-Pantaléon-de-Lapleau"},{"id":6742,"zip_code":"21360","name":"EpicEdge Gaming Zone","gps_lat":47.17462883928569,"gps_lng":4.74699839285714,"city":"Antheuil"},{"id":6826,"zip_code":"21200","name":"ChronoCircuit Games","gps_lat":47.0550264,"gps_lng":4.76564813333334,"city":"Bouze-lès-Beaune"},{"id":6841,"zip_code":"21500","name":"NeoPixel Nexus","gps_lat":47.65424679999998,"gps_lng":4.2743225,"city":"Buffon"},{"id":6900,"zip_code":"21200","name":"GameCrafters Haven","gps_lat":47.05185462962962,"gps_lng":4.86793425925926,"city":"Chorey-les-Beaune"},{"id":6933,"zip_code":"21560","name":"PixelPulse Pro","gps_lat":47.32913024390245,"gps_lng":5.15079926829268,"city":"Couternon"},{"id":6936,"zip_code":"21500","name":"WizardWorks Games","gps_lat":47.60460285714286,"gps_lng":4.31304128571429,"city":"Crépand"},{"id":7119,"zip_code":"21510","name":"PixelPrism Palace","gps_lat":47.70956806722689,"gps_lng":4.71747941176471,"city":"Mauvilly"},{"id":7218,"zip_code":"21140","name":"QuestCraze Arcade","gps_lat":47.46860065573771,"gps_lng":4.3561787704918,"city":"Pont-et-Massène"},{"id":7219,"zip_code":"21350","name":"CosmicCart Video Games","gps_lat":47.42004976744187,"gps_lng":4.52456930232558,"city":"Posanges"},{"id":7237,"zip_code":"21700","name":"ByteBurst Boutique","gps_lat":47.10634062500002,"gps_lng":4.9723015,"city":"Quincey"},{"id":7374,"zip_code":"21110","name":"RetroRush Zone","gps_lat":47.2321396969697,"gps_lng":5.20493772727273,"city":"Varanges"},{"id":7408,"zip_code":"21120","name":"GameFusion Guild","gps_lat":47.50196057851241,"gps_lng":5.02079214876033,"city":"Villecomte"},{"id":7469,"zip_code":"22140","name":"NostalgiaSphere","gps_lat":48.67158259999996,"gps_lng":-3.2541661,"city":"Coatascorn"},{"id":7604,"zip_code":"22720","name":"ArcaneAttic Emporium","gps_lat":48.4401392039801,"gps_lng":-3.13004335820896,"city":"Plésidy"},{"id":7614,"zip_code":"22240","name":"PixelParadox Playhouse","gps_lat":48.66443316793888,"gps_lng":-2.31897255725191,"city":"Plévenon"},{"id":7651,"zip_code":"22350","name":"GameFreak MegaStore","gps_lat":48.35700479797978,"gps_lng":-2.11183494949495,"city":"Plumaudan"},{"id":7653,"zip_code":"22210","name":"TechSprint Video Games","gps_lat":48.10451677740862,"gps_lng":-2.5941547176079798,"city":"Plumieux"},{"id":7681,"zip_code":"22390","name":"CyberCraft Arcade","gps_lat":48.48966073170732,"gps_lng":-3.13186207317073,"city":"Saint-Adrien"},{"id":7685,"zip_code":"22600","name":"VRVisions Haven","gps_lat":48.1385464028777,"gps_lng":-2.70579582733813,"city":"Saint-Barnabé"},{"id":7696,"zip_code":"22400","name":"GameBlitz Universe","gps_lat":48.51839401639344,"gps_lng":-2.38546868852459,"city":"Saint-Denoual"},{"id":7708,"zip_code":"22170","name":"PixelWave Arcade","gps_lat":48.55168840659342,"gps_lng":-3.03283587912088,"city":"Saint-Jean-Kerdaniel"},{"id":7736,"zip_code":"22230","name":"RetroRevival","gps_lat":48.24219007518796,"gps_lng":-2.45028003759398,"city":"Saint-Vran"},{"id":7744,"zip_code":"22980","name":"GameBurst Haven","gps_lat":48.40876898648646,"gps_lng":-2.16496986486486,"city":"Trébédan"},{"id":7842,"zip_code":"23700","name":"TechTrove Video Games","gps_lat":46.0459199671053,"gps_lng":2.56017898026316,"city":"Charron"},{"id":7903,"zip_code":"23800","name":"QuantumQuarters","gps_lat":46.34759823834195,"gps_lng":1.67203777202072,"city":"Maison-Feyne"},{"id":7911,"zip_code":"23100","name":"PixelNest Gaming","gps_lat":45.73200732394366,"gps_lng":2.18688767605634,"city":"Le Mas-d'Artige"},{"id":7929,"zip_code":"23500","name":"EpicEdge Gaming Zone","gps_lat":45.8465819148936,"gps_lng":2.07522407294833,"city":"La Nouaille"},{"id":7973,"zip_code":"23000","name":"ChronoCircuit Games","gps_lat":46.08094392405066,"gps_lng":1.81423772151899,"city":"Saint-Éloi"},{"id":8064,"zip_code":"24390","name":"NeoPixel Nexus","gps_lat":45.23132021978022,"gps_lng":1.20399978021978,"city":"Badefols-d'Ans"},{"id":8116,"zip_code":"24530","name":"GameCrafters Haven","gps_lat":45.40132330188678,"gps_lng":0.64398009433962,"city":"Cantillac"},{"id":8170,"zip_code":"24520","name":"PixelPulse Pro","gps_lat":44.83097263636362,"gps_lng":0.55579063636364,"city":"Cours-de-Pile"},{"id":8204,"zip_code":"24120","name":"WizardWorks Games","gps_lat":45.11524829999999,"gps_lng":1.3964112,"city":"La Feuillade"},{"id":8205,"zip_code":"24450","name":"PixelPrism Palace","gps_lat":45.59781831896552,"gps_lng":0.9404025862069,"city":"Firbeix"},{"id":8229,"zip_code":"24300","name":"QuestCraze Arcade","gps_lat":45.53702194915255,"gps_lng":0.51081677966102,"city":"Hautefaye"},{"id":8311,"zip_code":"24590","name":"CosmicCart Video Games","gps_lat":45.03313655844157,"gps_lng":1.39167207792208,"city":"Nadaillac"},{"id":8325,"zip_code":"24370","name":"ByteBurst Boutique","gps_lat":44.91058953703702,"gps_lng":1.38006712962963,"city":"Orliaguet"},{"id":8451,"zip_code":"24140","name":"RetroRush Zone","gps_lat":44.96302272058823,"gps_lng":0.62232551470588,"city":"Saint-Martin-des-Combes"},{"id":8494,"zip_code":"24600","name":"GameFusion Guild","gps_lat":45.2014152293578,"gps_lng":0.39470513761468,"city":"Saint-Sulpice-de-Roumagnac"},{"id":8527,"zip_code":"24170","name":"NostalgiaSphere","gps_lat":44.81927118881124,"gps_lng":0.97268713286713,"city":"Siorac-en-Périgord"},{"id":8616,"zip_code":"25470","name":"ArcaneAttic Emporium","gps_lat":47.25866255555557,"gps_lng":6.90471122222222,"city":"Belfays"},{"id":8619,"zip_code":"25530","name":"PixelParadox Playhouse","gps_lat":47.21893869047617,"gps_lng":6.36485404761905,"city":"Belmont"},{"id":8721,"zip_code":"25440","name":"GameFreak MegaStore","gps_lat":47.10186333333333,"gps_lng":5.9642536842105205,"city":"Courcelles"},{"id":8780,"zip_code":"25530","name":"TechSprint Video Games","gps_lat":47.20539987654322,"gps_lng":6.42691283950618,"city":"Eysson"},{"id":8798,"zip_code":"25110","name":"CyberCraft Arcade","gps_lat":47.37509530303031,"gps_lng":6.31855181818182,"city":"Fontenotte"},{"id":8802,"zip_code":"25440","name":"VRVisions Haven","gps_lat":47.09725893333335,"gps_lng":5.80509213333333,"city":"Fourg"},{"id":8891,"zip_code":"25260","name":"GameBlitz Universe","gps_lat":47.47370036363635,"gps_lng":6.68182727272727,"city":"Lougres"},{"id":8911,"zip_code":"25410","name":"PixelWave Arcade","gps_lat":47.21137094017094,"gps_lng":5.75703666666666,"city":"Mercey-le-Grand"},{"id":8943,"zip_code":"25660","name":"RetroRevival","gps_lat":47.21987281690141,"gps_lng":6.06967521126761,"city":"Morre"},{"id":8992,"zip_code":"25160","name":"GameBurst Haven","gps_lat":46.84528572649571,"gps_lng":6.26905324786325,"city":"La Planée"},{"id":8996,"zip_code":"25150","name":"TechTrove Video Games","gps_lat":47.38249512195122,"gps_lng":6.76234609756097,"city":"Pont-de-Roide-Vermondans"},{"id":9023,"zip_code":"25110","name":"QuantumQuarters","gps_lat":47.41387177419355,"gps_lng":6.36631080645161,"city":"Rillans"},{"id":9036,"zip_code":"25680","name":"PixelNest Gaming","gps_lat":47.47819637323943,"gps_lng":6.34659095070423,"city":"Rougemont"},{"id":9056,"zip_code":"25630","name":"EpicEdge Gaming Zone","gps_lat":47.5073956097561,"gps_lng":6.76975317073171,"city":"Sainte-Suzanne"},{"id":9179,"zip_code":"26150","name":"ChronoCircuit Games","gps_lat":44.72529945736434,"gps_lng":5.30516612403101,"city":"Barsac"},{"id":9382,"zip_code":"26460","name":"NeoPixel Nexus","gps_lat":44.59951693069308,"gps_lng":5.10183495049505,"city":"Le Poët-Célard"},{"id":9418,"zip_code":"26170","name":"GameCrafters Haven","gps_lat":44.25883486842106,"gps_lng":5.42570486842105,"city":"La Rochette-du-Buis"},{"id":9495,"zip_code":"26790","name":"PixelPulse Pro","gps_lat":44.28564473684212,"gps_lng":4.93373810526316,"city":"Tulette"},{"id":9548,"zip_code":"27240","name":"WizardWorks Games","gps_lat":48.90834045454546,"gps_lng":1.14412909090909,"city":"Chambois"},{"id":9570,"zip_code":"27370","name":"PixelPrism Palace","gps_lat":49.23848355932204,"gps_lng":0.97548966101695,"city":"Le Bec-Thomas"},{"id":9573,"zip_code":"27300","name":"QuestCraze Arcade","gps_lat":49.09003686468644,"gps_lng":0.5971401980198,"city":"Bernay"},{"id":9656,"zip_code":"27420","name":"CosmicCart Video Games","gps_lat":49.19929710843373,"gps_lng":1.65678421686747,"city":"Château-sur-Epte"},{"id":9714,"zip_code":"27110","name":"ByteBurst Boutique","gps_lat":49.16872500000001,"gps_lng":1.01181170731707,"city":"Ecquetot"},{"id":9834,"zip_code":"27210","name":"RetroRush Zone","gps_lat":49.29340115789474,"gps_lng":0.33229894736842,"city":"La Lande-Saint-Léger"},{"id":9887,"zip_code":"27150","name":"GameFusion Guild","gps_lat":49.37637911764708,"gps_lng":1.5756983333333299,"city":"Morgny"},{"id":9897,"zip_code":"27550","name":"NostalgiaSphere","gps_lat":49.1287898,"gps_lng":0.7326193,"city":"Nassandres sur Risle"},{"id":10007,"zip_code":"27600","name":"ArcaneAttic Emporium","gps_lat":49.13933736842105,"gps_lng":1.28788877192982,"city":"Saint-Julien-de-la-Liègue"},{"id":10132,"zip_code":"27100","name":"PixelParadox Playhouse","gps_lat":49.26419611570251,"gps_lng":1.2050961707989,"city":"Val-de-Reuil"},{"id":10171,"zip_code":"28120","name":"GameFreak MegaStore","gps_lat":48.31097061855672,"gps_lng":1.28938742268041,"city":"Blandainville"},{"id":10228,"zip_code":"28630","name":"TechSprint Video Games","gps_lat":48.36882268292683,"gps_lng":1.5112465853658499,"city":"Corancez"},{"id":10253,"zip_code":"28500","name":"CyberCraft Arcade","gps_lat":48.70814419354839,"gps_lng":1.42498370967742,"city":"Écluzelles"},{"id":10254,"zip_code":"28320","name":"VRVisions Haven","gps_lat":48.5554276744186,"gps_lng":1.73544151162791,"city":"Écrosnes"},{"id":10372,"zip_code":"28160","name":"GameBlitz Universe","gps_lat":48.25346054054054,"gps_lng":1.16486216216216,"city":"Mottereau"},{"id":10512,"zip_code":"29770","name":"PixelWave Arcade","gps_lat":48.02304823275861,"gps_lng":-4.56486857758621,"city":"Audierne"},{"id":10514,"zip_code":"29300","name":"RetroRevival","gps_lat":47.85697388059703,"gps_lng":-3.61352291044776,"city":"Baye"},{"id":10556,"zip_code":"29510","name":"GameBurst Haven","gps_lat":48.1117274022346,"gps_lng":-3.96481980446927,"city":"Edern"},{"id":10578,"zip_code":"29730","name":"TechTrove Video Games","gps_lat":47.80012342105262,"gps_lng":-4.28979789473684,"city":"Guilvinec"},{"id":10643,"zip_code":"29800","name":"QuantumQuarters","gps_lat":48.4325082727273,"gps_lng":-4.16991042424243,"city":"La Martyre"},{"id":10644,"zip_code":"29790","name":"PixelNest Gaming","gps_lat":48.0511945683453,"gps_lng":-4.43921705035971,"city":"Confort-Meilars"},{"id":10665,"zip_code":"29700","name":"EpicEdge Gaming Zone","gps_lat":47.9320812937063,"gps_lng":-4.14801409090909,"city":"Plomelin"},{"id":10723,"zip_code":"29300","name":"ChronoCircuit Games","gps_lat":47.85330728571429,"gps_lng":-3.55980975,"city":"Quimperlé"},{"id":10770,"zip_code":"29730","name":"NeoPixel Nexus","gps_lat":47.80309333333335,"gps_lng":-4.2611493798449604,"city":"Treffiagat"},{"id":10839,"zip_code":"20190","name":"GameCrafters Haven","gps_lat":41.84825737704915,"gps_lng":9.0110893442623,"city":"Forciolo"},{"id":10843,"zip_code":"20100","name":"PixelPulse Pro","gps_lat":41.6411422891566,"gps_lng":9.01211614457831,"city":"Granace"},{"id":10856,"zip_code":"20112","name":"WizardWorks Games","gps_lat":41.68435886792453,"gps_lng":9.09410216981132,"city":"Mela"},{"id":10887,"zip_code":"20145","name":"PixelPrism Palace","gps_lat":41.82688732758621,"gps_lng":9.37763856321838,"city":"Sari-Solenzara"},{"id":10997,"zip_code":"20240","name":"QuestCraze Arcade","gps_lat":42.05002455149504,"gps_lng":9.41184514950166,"city":"Ghisonaccia"},{"id":11049,"zip_code":"20251","name":"CosmicCart Video Games","gps_lat":42.217847,"gps_lng":9.371404,"city":"Pancheraccia"},{"id":11059,"zip_code":"20234","name":"ByteBurst Boutique","gps_lat":42.31970418181818,"gps_lng":9.404868,"city":"Piazzali"},{"id":11108,"zip_code":"20246","name":"RetroRush Zone","gps_lat":42.57945472727272,"gps_lng":9.25099154545455,"city":"Sorio"},{"id":11124,"zip_code":"20230","name":"GameFusion Guild","gps_lat":42.38283762237763,"gps_lng":9.50372748251749,"city":"Santa-Lucia-di-Moriani"},{"id":11132,"zip_code":"20230","name":"NostalgiaSphere","gps_lat":42.35013380434781,"gps_lng":9.45918304347826,"city":"Santa-Reparata-di-Moriani"},{"id":11137,"zip_code":"20248","name":"ArcaneAttic Emporium","gps_lat":42.94784641975308,"gps_lng":9.45034259259259,"city":"Tomino"},{"id":11170,"zip_code":"30100","name":"PixelParadox Playhouse","gps_lat":44.12400576530612,"gps_lng":4.08944826530612,"city":"Alès"},{"id":11231,"zip_code":"30260","name":"GameFreak MegaStore","gps_lat":43.83639569892473,"gps_lng":3.99635569892473,"city":"Carnas"},{"id":11245,"zip_code":"30200","name":"TechSprint Video Games","gps_lat":44.12784563636365,"gps_lng":4.70099690909091,"city":"Codolet"},{"id":11289,"zip_code":"30140","name":"CyberCraft Arcade","gps_lat":44.08195499999999,"gps_lng":3.98413787878788,"city":"Générargues"},{"id":11323,"zip_code":"30350","name":"VRVisions Haven","gps_lat":43.9523775,"gps_lng":4.16306964285714,"city":"Mauressargues"},{"id":11360,"zip_code":"30120","name":"GameBlitz Universe","gps_lat":43.94585156521739,"gps_lng":3.62182391304348,"city":"Pommiers"},{"id":11400,"zip_code":"30110","name":"PixelWave Arcade","gps_lat":44.25866060402685,"gps_lng":3.97941899328859,"city":"Sainte-Cécile-d'Andorge"},{"id":11454,"zip_code":"30430","name":"RetroRevival","gps_lat":44.2738332653061,"gps_lng":4.35250765306122,"city":"Saint-Privat-de-Champclos"},{"id":11484,"zip_code":"30110","name":"GameBurst Haven","gps_lat":44.16910030674848,"gps_lng":3.99488920245399,"city":"Soustelle"},{"id":11510,"zip_code":"30260","name":"TechTrove Video Games","gps_lat":43.86990287878789,"gps_lng":4.07868318181818,"city":"Vic-le-Fesq"},{"id":11558,"zip_code":"31110","name":"QuantumQuarters","gps_lat":42.75038770212767,"gps_lng":0.62123523404255,"city":"Bagnères-de-Luchon"},{"id":11562,"zip_code":"31440","name":"PixelNest Gaming","gps_lat":42.86719185185184,"gps_lng":0.6340062962963,"city":"Baren"},{"id":11588,"zip_code":"31230","name":"EpicEdge Gaming Zone","gps_lat":43.40703054545454,"gps_lng":0.82500818181818,"city":"Boissède"},{"id":11667,"zip_code":"31700","name":"ChronoCircuit Games","gps_lat":43.65221161616164,"gps_lng":1.32363515151515,"city":"Cornebarrieu"},{"id":11749,"zip_code":"31480","name":"NeoPixel Nexus","gps_lat":43.72191480519481,"gps_lng":1.09452831168831,"city":"Le Grès"},{"id":11770,"zip_code":"31510","name":"GameCrafters Haven","gps_lat":43.04143714285714,"gps_lng":0.58467634920635,"city":"Labroquère"},{"id":11794,"zip_code":"31310","name":"PixelPulse Pro","gps_lat":43.24942263803678,"gps_lng":1.29003889570552,"city":"Latrape"},{"id":11876,"zip_code":"31230","name":"WizardWorks Games","gps_lat":43.30194485074627,"gps_lng":0.76917843283582,"city":"Montbernard"},{"id":11913,"zip_code":"31540","name":"PixelPrism Palace","gps_lat":43.49111822580645,"gps_lng":1.93693338709677,"city":"Nogaret"},{"id":11915,"zip_code":"31450","name":"QuestCraze Arcade","gps_lat":43.52384775000001,"gps_lng":1.592456125,"city":"Odars"},{"id":12124,"zip_code":"32600","name":"CosmicCart Video Games","gps_lat":43.56260383886254,"gps_lng":1.06518834123223,"city":"Auradé"},{"id":12138,"zip_code":"32300","name":"ByteBurst Boutique","gps_lat":43.51288740384614,"gps_lng":0.29751028846154,"city":"Bars"},{"id":12146,"zip_code":"32600","name":"RetroRush Zone","gps_lat":43.64423871794872,"gps_lng":1.01183705128205,"city":"Beaupuy"},{"id":12151,"zip_code":"32190","name":"GameFusion Guild","gps_lat":43.69022382198951,"gps_lng":0.24311701570681,"city":"Belmont"},{"id":12226,"zip_code":"32810","name":"NostalgiaSphere","gps_lat":43.67268052631579,"gps_lng":0.56254328947368,"city":"Duran"},{"id":12260,"zip_code":"32730","name":"ArcaneAttic Emporium","gps_lat":43.41911512345682,"gps_lng":0.16043487654321,"city":"Haget"},{"id":12264,"zip_code":"32300","name":"PixelParadox Playhouse","gps_lat":43.51523663865546,"gps_lng":0.46697823529412,"city":"Idrac-Respaillès"},{"id":12281,"zip_code":"32230","name":"GameFreak MegaStore","gps_lat":43.55059832487308,"gps_lng":0.09155695431472,"city":"Ladevèze-Rivière"},{"id":12369,"zip_code":"32150","name":"TechSprint Video Games","gps_lat":43.91697326203209,"gps_lng":-0.10582711229946995,"city":"Monclar"},{"id":12370,"zip_code":"32300","name":"CyberCraft Arcade","gps_lat":43.52727102040817,"gps_lng":0.33681193877551,"city":"Monclar-sur-Losse"},{"id":12377,"zip_code":"32140","name":"VRVisions Haven","gps_lat":43.34970978571429,"gps_lng":0.51454885714286,"city":"Monlaur-Bernet"},{"id":12380,"zip_code":"32170","name":"GameBlitz Universe","gps_lat":43.46351507692308,"gps_lng":0.243978,"city":"Monpardiac"},{"id":12460,"zip_code":"32170","name":"PixelWave Arcade","gps_lat":43.39780584745763,"gps_lng":0.34590449152542,"city":"Sadeillan"},{"id":12463,"zip_code":"32340","name":"RetroRevival","gps_lat":44.03905448818897,"gps_lng":0.83443181102362,"city":"Saint-Antoine"},{"id":12525,"zip_code":"32220","name":"GameBurst Haven","gps_lat":43.45069898550725,"gps_lng":0.96882971014493,"city":"Sauvimont"},{"id":12555,"zip_code":"32230","name":"TechTrove Video Games","gps_lat":43.54704017699114,"gps_lng":0.15751743362832,"city":"Tourdun"},{"id":12582,"zip_code":"33120","name":"QuantumQuarters","gps_lat":44.65539734693878,"gps_lng":-1.1725906122449001,"city":"Arcachon"},{"id":12740,"zip_code":"33270","name":"PixelNest Gaming","gps_lat":44.83371963636365,"gps_lng":-0.51491054545455,"city":"Floirac"},{"id":12756,"zip_code":"33240","name":"EpicEdge Gaming Zone","gps_lat":45.04574738095238,"gps_lng":-0.39567511904762,"city":"Gauriaguet"},{"id":12952,"zip_code":"33230","name":"ChronoCircuit Games","gps_lat":45.09327165467624,"gps_lng":0.02971809352518,"city":"Saint-Christophe-de-Double"},{"id":13016,"zip_code":"33126","name":"NeoPixel Nexus","gps_lat":44.9313106097561,"gps_lng":-0.29766390243901997,"city":"Saint-Michel-de-Fronsac"},{"id":13019,"zip_code":"33650","name":"GameCrafters Haven","gps_lat":44.636411478873256,"gps_lng":-0.52491253521127,"city":"Saint-Morillon"},{"id":13046,"zip_code":"33350","name":"PixelPulse Pro","gps_lat":44.83650413043479,"gps_lng":-0.12660608695651998,"city":"Sainte-Terre"},{"id":13077,"zip_code":"33550","name":"WizardWorks Games","gps_lat":44.7245785135135,"gps_lng":-0.40932702702703005,"city":"Tabanac"},{"id":13080,"zip_code":"33590","name":"PixelPrism Palace","gps_lat":45.47959822222222,"gps_lng":-1.0665971111111099,"city":"Talais"},{"id":13108,"zip_code":"33141","name":"QuestCraze Arcade","gps_lat":44.97347733333333,"gps_lng":-0.31418619999999997,"city":"Villegouge"},{"id":13207,"zip_code":"34310","name":"CosmicCart Video Games","gps_lat":43.34819590909092,"gps_lng":2.9414930303030298,"city":"Cruzy"},{"id":13234,"zip_code":"34600","name":"ByteBurst Boutique","gps_lat":43.59396802197802,"gps_lng":3.11599450549451,"city":"Hérépian"},{"id":13315,"zip_code":"34700","name":"RetroRush Zone","gps_lat":43.80552782608696,"gps_lng":3.32789949275362,"city":"Pégairolles-de-l'Escalette"},{"id":13395,"zip_code":"34190","name":"GameFusion Guild","gps_lat":43.84658899999999,"gps_lng":3.5185589999999998,"city":"Saint-Maurice-Navacelles"},{"id":13406,"zip_code":"34725","name":"NostalgiaSphere","gps_lat":43.70214741071427,"gps_lng":3.46822955357143,"city":"Saint-Saturnin-de-Lucian"},{"id":13498,"zip_code":"35330","name":"ArcaneAttic Emporium","gps_lat":47.95455358108108,"gps_lng":-1.95232385135135,"city":"Bovel"},{"id":13513,"zip_code":"35680","name":"PixelParadox Playhouse","gps_lat":48.03290038759689,"gps_lng":-1.3671670542635699,"city":"Chancé"},{"id":13517,"zip_code":"35330","name":"GameFreak MegaStore","gps_lat":47.9398411675127,"gps_lng":-1.92522035532995,"city":"La Chapelle-Bouëxic"},{"id":13570,"zip_code":"35560","name":"TechSprint Video Games","gps_lat":48.46561294444449,"gps_lng":-1.5057155,"city":"La Fontenelle"},{"id":13617,"zip_code":"35420","name":"CyberCraft Arcade","gps_lat":48.48251084134615,"gps_lng":-1.1196090144230801,"city":"Louvigné-du-Désert"},{"id":13681,"zip_code":"35500","name":"VRVisions Haven","gps_lat":48.11337052631578,"gps_lng":-1.26525401913876,"city":"Pocé-les-Bois"},{"id":13690,"zip_code":"35000","name":"GameBlitz Universe","gps_lat":48.11734209999999,"gps_lng":-1.7075198,"city":"Rennes"},{"id":13692,"zip_code":"35700","name":"PixelWave Arcade","gps_lat":48.13309520000001,"gps_lng":-1.648998,"city":"Rennes"},{"id":13832,"zip_code":"36100","name":"RetroRevival","gps_lat":46.98440048387098,"gps_lng":1.95869709677419,"city":"Les Bordes"},{"id":13897,"zip_code":"36300","name":"GameBurst Haven","gps_lat":46.59459083333331,"gps_lng":0.966752,"city":"Ingrandes"},{"id":13915,"zip_code":"36220","name":"TechTrove Video Games","gps_lat":46.74238330578513,"gps_lng":1.03624727272727,"city":"Lureuil"},{"id":13937,"zip_code":"36400","name":"QuantumQuarters","gps_lat":46.59493107438016,"gps_lng":1.9713113223140502,"city":"Montgivray"},{"id":14041,"zip_code":"36400","name":"PixelNest Gaming","gps_lat":46.65583798165139,"gps_lng":2.01857321100917,"city":"Verneuil-sur-Igneraie"},{"id":14049,"zip_code":"36110","name":"EpicEdge Gaming Zone","gps_lat":46.9223244,"gps_lng":1.5862956000000001,"city":"Villegongis"},{"id":14050,"zip_code":"36500","name":"ChronoCircuit Games","gps_lat":46.95869878787881,"gps_lng":1.3710702020202001,"city":"Villegouin"},{"id":14061,"zip_code":"37120","name":"NeoPixel Nexus","gps_lat":47.06616710843374,"gps_lng":0.26976951807229,"city":"Assay"},{"id":14112,"zip_code":"37110","name":"GameCrafters Haven","gps_lat":47.59120166666666,"gps_lng":0.90761488095238,"city":"Château-Renault"},{"id":14137,"zip_code":"37500","name":"PixelPulse Pro","gps_lat":47.16900838709677,"gps_lng":0.08031161290323,"city":"Couziers"},{"id":14217,"zip_code":"37390","name":"WizardWorks Games","gps_lat":47.45355522388061,"gps_lng":0.70423492537313,"city":"Notre-Dame-d'Oé"},{"id":14222,"zip_code":"37460","name":"PixelPrism Palace","gps_lat":47.21668493333335,"gps_lng":1.24569706666667,"city":"Orbigny"},{"id":14231,"zip_code":"37260","name":"QuestCraze Arcade","gps_lat":47.26157786516855,"gps_lng":0.56979449438202,"city":"Pont-de-Ruan"},{"id":14265,"zip_code":"37600","name":"CosmicCart Video Games","gps_lat":47.08103403846155,"gps_lng":1.05831043269231,"city":"Saint-Jean-Saint-Germain"},{"id":14291,"zip_code":"37250","name":"ByteBurst Boutique","gps_lat":47.23610530927837,"gps_lng":0.69049943298969,"city":"Sorigny"},{"id":14355,"zip_code":"38440","name":"RetroRush Zone","gps_lat":45.5199341791045,"gps_lng":5.08025791044776,"city":"Beauvoir-de-Marc"},{"id":14376,"zip_code":"38870","name":"GameFusion Guild","gps_lat":45.32105379310345,"gps_lng":5.27658689655173,"city":"Bressieux"},{"id":14469,"zip_code":"38690","name":"NostalgiaSphere","gps_lat":45.44421437499999,"gps_lng":5.32637015625,"city":"Eydoche"},{"id":14526,"zip_code":"38300","name":"ArcaneAttic Emporium","gps_lat":45.56259528000002,"gps_lng":5.26074424,"city":"Maubec"},{"id":14576,"zip_code":"38300","name":"PixelParadox Playhouse","gps_lat":45.56121891891892,"gps_lng":5.30832612612613,"city":"Nivolas-Vermelle"},{"id":14583,"zip_code":"38350","name":"GameFreak MegaStore","gps_lat":44.93620725806453,"gps_lng":5.8798566935483905,"city":"Oris-en-Rattier"},{"id":14635,"zip_code":"38140","name":"TechSprint Video Games","gps_lat":45.35919199999999,"gps_lng":5.49304139130435,"city":"Rives"},{"id":14699,"zip_code":"38710","name":"CyberCraft Arcade","gps_lat":44.85756671532845,"gps_lng":5.76101262773723,"city":"Saint-Jean-d'Hérans"},{"id":14701,"zip_code":"38134","name":"VRVisions Haven","gps_lat":45.3676950625,"gps_lng":5.6921945,"city":"Saint-Joseph-de-Rivière"},{"id":14717,"zip_code":"38400","name":"GameBlitz Universe","gps_lat":45.17824796610169,"gps_lng":5.76123661016949,"city":"Saint-Martin-d'Hères"},{"id":14721,"zip_code":"38550","name":"PixelWave Arcade","gps_lat":45.38594517857143,"gps_lng":4.77500071428571,"city":"Saint-Maurice-l'Exil"},{"id":14759,"zip_code":"38510","name":"RetroRevival","gps_lat":45.70117880503146,"gps_lng":5.4949144654088,"city":"Saint-Victor-de-Morestel"},{"id":14764,"zip_code":"38350","name":"GameBurst Haven","gps_lat":44.86006299999999,"gps_lng":5.86003688888889,"city":"La Salle-en-Beaumont"},{"id":14788,"zip_code":"38300","name":"TechTrove Video Games","gps_lat":45.53082156424581,"gps_lng":5.34080793296089,"city":"Succieu"},{"id":14800,"zip_code":"38650","name":"QuantumQuarters","gps_lat":44.90260581967213,"gps_lng":5.6653096721311496,"city":"Treffort"},{"id":14818,"zip_code":"38620","name":"GamingGalaxy","gps_lat":45.48975769230771,"gps_lng":5.64060576923077,"city":"Velanne"},{"id":14856,"zip_code":"39110","name":"PixelPerfect Playhouse","gps_lat":46.91469887755105,"gps_lng":5.94281336734694,"city":"Abergement-lès-Thésy"},{"id":14877,"zip_code":"39380","name":"VirtualVoyage Arcade","gps_lat":47.00937520408164,"gps_lng":5.58053540816327,"city":"Augerans"},{"id":14956,"zip_code":"39210","name":"RetroRocket Games","gps_lat":46.75722868055557,"gps_lng":5.64174951388889,"city":"Château-Chalon"},{"id":14989,"zip_code":"39300","name":"GameStar Collective","gps_lat":46.72337770491804,"gps_lng":5.91865016393442,"city":"Cize"},{"id":15077,"zip_code":"39100","name":"TechTide Video Games","gps_lat":47.03290472972972,"gps_lng":5.44685135135135,"city":"Gevry"},{"id":15084,"zip_code":"39290","name":"QuantumQuarters","gps_lat":47.15846142857141,"gps_lng":5.51587767857143,"city":"Gredisans"},{"id":15170,"zip_code":"39290","name":"PixelNest Gaming","gps_lat":47.21689178082191,"gps_lng":5.5179805479452,"city":"Montmirey-la-Ville"},{"id":15171,"zip_code":"39290","name":"EpicEdge Gaming Zone","gps_lat":47.22931117647057,"gps_lng":5.53267450980393,"city":"Montmirey-le-Château"},{"id":15210,"zip_code":"39300","name":"ChronoCircuit Games","gps_lat":46.79690177419356,"gps_lng":5.89978362903226,"city":"Le Pasquier"},{"id":15264,"zip_code":"39350","name":"NeoPixel Nexus","gps_lat":47.20669343283581,"gps_lng":5.71689283582089,"city":"Romain"},{"id":15279,"zip_code":"39200","name":"GameCrafters Haven","gps_lat":46.39808779264216,"gps_lng":5.86332307692307,"city":"Saint-Claude"},{"id":15290,"zip_code":"39170","name":"PixelPulse Pro","gps_lat":46.41253813186815,"gps_lng":5.79453626373626,"city":"Coteaux du Lizon"},{"id":15298,"zip_code":"39110","name":"WizardWorks Games","gps_lat":46.95285506743743,"gps_lng":5.90084836223507,"city":"Salins-les-Bains"},{"id":15372,"zip_code":"40800","name":"PixelPrism Palace","gps_lat":43.70174364562123,"gps_lng":-0.26500883910386996,"city":"Aire-sur-l'Adour"},{"id":15502,"zip_code":"40210","name":"QuestCraze Arcade","gps_lat":44.21640933333332,"gps_lng":-0.92327,"city":"Labouheyre"},{"id":15549,"zip_code":"40660","name":"CosmicCart Video Games","gps_lat":43.79608914893619,"gps_lng":-1.36317787234043,"city":"Messanges"},{"id":15597,"zip_code":"40200","name":"ByteBurst Boutique","gps_lat":44.21995549295775,"gps_lng":-1.10796845070423,"city":"Pontenx-les-Forges"},{"id":15603,"zip_code":"40380","name":"RetroRush Zone","gps_lat":43.74733392670159,"gps_lng":-0.81870445026178,"city":"Poyanne"},{"id":15605,"zip_code":"40465","name":"GameFusion Guild","gps_lat":43.75396241071429,"gps_lng":-0.92038535714286,"city":"Préchacq-les-Bains"},{"id":15619,"zip_code":"40700","name":"NostalgiaSphere","gps_lat":43.68449148648649,"gps_lng":-0.55488418918919,"city":"Sainte-Colombe"},{"id":15655,"zip_code":"40120","name":"ArcaneAttic Emporium","gps_lat":44.01818576354676,"gps_lng":-0.30236379310344996,"city":"Sarbazan"},{"id":15704,"zip_code":"41100","name":"PixelParadox Playhouse","gps_lat":47.79586397435899,"gps_lng":1.10528897435897,"city":"Areines"},{"id":15715,"zip_code":"41240","name":"GameFreak MegaStore","gps_lat":47.90755637254902,"gps_lng":1.45911735294118,"city":"Binas"},{"id":15775,"zip_code":"41210","name":"TechSprint Video Games","gps_lat":47.54006333333331,"gps_lng":1.8508295833333301,"city":"La Ferté-Beauharnais"},{"id":15818,"zip_code":"41330","name":"CyberCraft Arcade","gps_lat":47.65604548780487,"gps_lng":1.30643109756098,"city":"Marolles"},{"id":15856,"zip_code":"41120","name":"VRVisions Haven","gps_lat":47.47653295081967,"gps_lng":1.3201842622950801,"city":"Ouchamps"},{"id":15870,"zip_code":"41310","name":"GameBlitz Universe","gps_lat":47.68654110465119,"gps_lng":0.91415930232558,"city":"Prunay-Cassereau"},{"id":15876,"zip_code":"41100","name":"PixelWave Arcade","gps_lat":47.81724749999999,"gps_lng":1.15387075,"city":"Rocé"},{"id":15896,"zip_code":"41310","name":"RetroRevival","gps_lat":47.65948054263563,"gps_lng":1.00990821705426,"city":"Saint-Gourgon"},{"id":15928,"zip_code":"41170","name":"GameBurst Haven","gps_lat":48.05879143382348,"gps_lng":0.89399259191176,"city":"Couëtron-au-Perche"},{"id":15946,"zip_code":"41400","name":"TechTrove Video Games","gps_lat":47.41243497409324,"gps_lng":1.15093331606218,"city":"Vallières-les-Grandes"},{"id":15957,"zip_code":"41200","name":"PixelPulse Pro","gps_lat":47.30370718446603,"gps_lng":1.75899368932039,"city":"Villefranche-sur-Cher"},{"id":15994,"zip_code":"42210","name":"WizardWorks Games","gps_lat":45.62496159090909,"gps_lng":4.20938,"city":"Boisset-lès-Montrond"},{"id":16071,"zip_code":"42140","name":"PixelPrism Palace","gps_lat":45.55357705882352,"gps_lng":4.41102426470588,"city":"La Gimond"},{"id":16078,"zip_code":"42560","name":"QuestCraze Arcade","gps_lat":45.53019162962966,"gps_lng":3.96954548148148,"city":"Gumières"},{"id":16131,"zip_code":"42310","name":"CosmicCart Video Games","gps_lat":46.18366136645962,"gps_lng":3.87585130434783,"city":"La Pacaudière"},{"id":16158,"zip_code":"42520","name":"ByteBurst Boutique","gps_lat":45.39094844262295,"gps_lng":4.66003893442623,"city":"Roisey"},{"id":16173,"zip_code":"42330","name":"RetroRush Zone","gps_lat":45.54274398373982,"gps_lng":4.33283162601626,"city":"Saint-Bonnet-les-Oules"},{"id":16208,"zip_code":"42155","name":"GameFusion Guild","gps_lat":45.95717552763821,"gps_lng":3.98951703517588,"city":"Saint-Jean-Saint-Maurice-sur-Loire"},{"id":16219,"zip_code":"42130","name":"NostalgiaSphere","gps_lat":45.77561722222224,"gps_lng":3.90482222222222,"city":"Saint-Laurent-Rochefort"},{"id":16339,"zip_code":"43510","name":"ArcaneAttic Emporium","gps_lat":44.88419708108107,"gps_lng":3.7837467027027,"city":"Le Bouchet-Saint-Nicolas"},{"id":16362,"zip_code":"43160","name":"PixelParadox Playhouse","gps_lat":45.35734259668507,"gps_lng":3.67793342541436,"city":"La Chapelle-Geneste"},{"id":16396,"zip_code":"43160","name":"GameFreak MegaStore","gps_lat":45.25871121863798,"gps_lng":3.7562550537634403,"city":"Félines"},{"id":16443,"zip_code":"43700","name":"TechSprint Video Games","gps_lat":45.06642714285713,"gps_lng":3.91369696428571,"city":"Le Monteil"},{"id":16529,"zip_code":"43150","name":"CyberCraft Arcade","gps_lat":44.86995388059702,"gps_lng":3.97458156716418,"city":"Salettes"},{"id":16678,"zip_code":"44390","name":"VRVisions Haven","gps_lat":47.40561956521741,"gps_lng":-1.45159173913043,"city":"Petit-Mars"},{"id":16761,"zip_code":"44570","name":"GameBlitz Universe","gps_lat":47.31511066115702,"gps_lng":-2.21111776859504,"city":"Trignac"},{"id":16788,"zip_code":"45500","name":"PixelWave Arcade","gps_lat":47.58783107317075,"gps_lng":2.60394643902439,"city":"Autry-le-Châtel"},{"id":16815,"zip_code":"45430","name":"RetroRevival","gps_lat":47.87157820512819,"gps_lng":2.04710794871795,"city":"Bou"},{"id":16853,"zip_code":"45260","name":"GameBurst Haven","gps_lat":47.92408090163932,"gps_lng":2.40859762295082,"city":"Châtenoy"},{"id":16880,"zip_code":"45320","name":"TechTrove Video Games","gps_lat":48.04777108910891,"gps_lng":2.93605306930693,"city":"Courtemaux"},{"id":16892,"zip_code":"45450","name":"QuantumQuarters","gps_lat":47.91252330985913,"gps_lng":2.10931507042254,"city":"Donnery"},{"id":16906,"zip_code":"45450","name":"PixelNest Gaming","gps_lat":47.93112084033614,"gps_lng":2.1517643697479,"city":"Fay-aux-Loges"},{"id":16924,"zip_code":"45480","name":"EpicEdge Gaming Zone","gps_lat":48.18911309999999,"gps_lng":2.1164679,"city":"Greneville-en-Beauce"},{"id":16980,"zip_code":"45340","name":"ChronoCircuit Games","gps_lat":48.0652394623656,"gps_lng":2.31851311827957,"city":"Nancray-sur-Rimarde"},{"id":17089,"zip_code":"45510","name":"NeoPixel Nexus","gps_lat":47.77778650349651,"gps_lng":2.11944118881119,"city":"Vienne-en-Val"},{"id":17158,"zip_code":"46500","name":"GameCrafters Haven","gps_lat":44.73876955696204,"gps_lng":1.6042810126582299,"city":"Carlucet"},{"id":17202,"zip_code":"46090","name":"PixelPulse Pro","gps_lat":44.40893704000001,"gps_lng":1.4952260800000001,"city":"Flaujac-Poujols"},{"id":17227,"zip_code":"46320","name":"WizardWorks Games","gps_lat":44.61978720930234,"gps_lng":1.8225351162790702,"city":"Grèzes"},{"id":17287,"zip_code":"46120","name":"PixelPrism Palace","gps_lat":44.79233611872148,"gps_lng":1.93817849315068,"city":"Molières"},{"id":17397,"zip_code":"46240","name":"QuestCraze Arcade","gps_lat":44.62634166666665,"gps_lng":1.58769583333333,"city":"Soulomès"},{"id":17423,"zip_code":"46090","name":"CosmicCart Video Games","gps_lat":44.52128610169491,"gps_lng":1.45653016949153,"city":"Saint-Pierre-Lafeuille"},{"id":17470,"zip_code":"47350","name":"ByteBurst Boutique","gps_lat":44.59650746376813,"gps_lng":0.27588057971014,"city":"Cambes"},{"id":17523,"zip_code":"47510","name":"RetroRush Zone","gps_lat":44.25085935064935,"gps_lng":0.6368467965368,"city":"Foulayronnes"},{"id":17546,"zip_code":"47150","name":"GameFusion Guild","gps_lat":44.50541160714285,"gps_lng":0.829428125,"city":"Lacaussade"},{"id":17560,"zip_code":"47340","name":"NostalgiaSphere","gps_lat":44.27720929906543,"gps_lng":0.75302495327103,"city":"Laroque-Timbaut"},{"id":17603,"zip_code":"47210","name":"ArcaneAttic Emporium","gps_lat":44.60818925925926,"gps_lng":0.68397333333333,"city":"Montaut"},{"id":17613,"zip_code":"47800","name":"PixelParadox Playhouse","gps_lat":44.64206975609756,"gps_lng":0.30208113821138,"city":"Moustier"},{"id":17622,"zip_code":"47140","name":"GameFreak MegaStore","gps_lat":44.37463715277776,"gps_lng":0.84636125,"city":"Penne-d'Agenais"},{"id":17712,"zip_code":"47360","name":"TechSprint Video Games","gps_lat":44.32108294117648,"gps_lng":0.64331990196078,"city":"Sembas"},{"id":17784,"zip_code":"48160","name":"CyberCraft Arcade","gps_lat":44.2523879411765,"gps_lng":3.9269778431372497,"city":"Le Collet-de-Dèze"},{"id":17851,"zip_code":"48120","name":"VRVisions Haven","gps_lat":44.80047276139414,"gps_lng":3.40846243967828,"city":"Saint-Alban-sur-Limagnole"},{"id":17871,"zip_code":"48700","name":"GameBlitz Universe","gps_lat":44.67143567073171,"gps_lng":3.41749579268293,"city":"Saint-Gal"},{"id":17883,"zip_code":"48140","name":"PixelWave Arcade","gps_lat":44.90032577272727,"gps_lng":3.31618259090909,"city":"Saint-Léger-du-Malzieu"},{"id":17886,"zip_code":"48160","name":"RetroRevival","gps_lat":44.24043492187497,"gps_lng":3.884440859375,"city":"Saint-Michel-de-Dèze"},{"id":17938,"zip_code":"49250","name":"GameBurst Haven","gps_lat":47.356497,"gps_lng":-0.448862,"city":"Brissac Loire Aubance"},{"id":17952,"zip_code":"49123","name":"TechTrove Video Games","gps_lat":47.43774141935485,"gps_lng":-0.88241741935484,"city":"Champtocé-sur-Loire"},{"id":17974,"zip_code":"49260","name":"QuantumQuarters","gps_lat":47.19776025316455,"gps_lng":-0.15805392405063,"city":"Courchamps"},{"id":17992,"zip_code":"49140","name":"PixelNest Gaming","gps_lat":47.54951421686749,"gps_lng":-0.25211960843374004,"city":"Jarzé Villages"},{"id":17999,"zip_code":"49440","name":"EpicEdge Gaming Zone","gps_lat":47.62857089337177,"gps_lng":-0.94615121037464,"city":"Loiré"},{"id":18008,"zip_code":"49630","name":"ChronoCircuit Games","gps_lat":47.4562079,"gps_lng":-0.27119099999999996,"city":"Mazé-Milon"},{"id":18108,"zip_code":"49340","name":"NeoPixel Nexus","gps_lat":47.11984339805824,"gps_lng":-0.80791378640777,"city":"Trémentines"},{"id":18254,"zip_code":"50530","name":"GameCrafters Haven","gps_lat":48.72000554687503,"gps_lng":-1.487218359375,"city":"Dragey-Ronthon"},{"id":18316,"zip_code":"50480","name":"PixelPulse Pro","gps_lat":49.37182227272726,"gps_lng":-1.25592818181818,"city":"Hiesville"},{"id":18347,"zip_code":"50300","name":"WizardWorks Games","gps_lat":48.70156351724138,"gps_lng":-1.3874635172413798,"city":"Marcey-les-Grèves"},{"id":18401,"zip_code":"50860","name":"PixelPrism Palace","gps_lat":48.999737,"gps_lng":-1.117709,"city":"Moyon Villages"},{"id":18430,"zip_code":"50340","name":"QuestCraze Arcade","gps_lat":49.46757389261747,"gps_lng":-1.77391214765101,"city":"Pierreville"},{"id":18519,"zip_code":"50190","name":"CosmicCart Video Games","gps_lat":49.16820693251537,"gps_lng":-1.36132343558282,"city":"Saint-Martin-d'Aubigny"},{"id":18554,"zip_code":"50240","name":"ByteBurst Boutique","gps_lat":48.55806171052631,"gps_lng":-1.32052513157895,"city":"Saint-Senier-de-Beuvron"},{"id":18660,"zip_code":"51270","name":"RetroRush Zone","gps_lat":48.86120935897436,"gps_lng":3.75473576923077,"city":"Baye"},{"id":18673,"zip_code":"51450","name":"GameFusion Guild","gps_lat":49.29712059523808,"gps_lng":4.06108238095238,"city":"Bétheny"},{"id":18714,"zip_code":"51320","name":"NostalgiaSphere","gps_lat":48.80026479166668,"gps_lng":4.24429854166667,"city":"Bussy-Lettrée"},{"id":18767,"zip_code":"51260","name":"ArcaneAttic Emporium","gps_lat":48.52811172619048,"gps_lng":3.81493952380952,"city":"Clesles"},{"id":18784,"zip_code":"51480","name":"PixelParadox Playhouse","gps_lat":49.1062205,"gps_lng":3.916169,"city":"Cormoyeux"},{"id":18787,"zip_code":"51230","name":"GameFreak MegaStore","gps_lat":48.70266784810126,"gps_lng":3.95769025316456,"city":"Corroy"},{"id":18798,"zip_code":"51390","name":"TechSprint Video Games","gps_lat":49.18730972972973,"gps_lng":3.91140567567568,"city":"Courmas"},{"id":18820,"zip_code":"51800","name":"CyberCraft Arcade","gps_lat":49.12984923076924,"gps_lng":4.79593892307692,"city":"Dommartin-sous-Hans"},{"id":18828,"zip_code":"51800","name":"VRVisions Haven","gps_lat":48.99107779661018,"gps_lng":4.99383584745762,"city":"Éclaires"},{"id":18842,"zip_code":"51310","name":"GameBlitz Universe","gps_lat":48.66499462686566,"gps_lng":3.55224656716418,"city":"Les Essarts-le-Vicomte"},{"id":18845,"zip_code":"51130","name":"PixelWave Arcade","gps_lat":48.88484575,"gps_lng":3.95130025,"city":"Étréchy"},{"id":18861,"zip_code":"51800","name":"RetroRevival","gps_lat":49.23835714285713,"gps_lng":4.7281774285714295,"city":"Fontaine-en-Dormois"},{"id":18904,"zip_code":"51190","name":"GameBurst Haven","gps_lat":48.98844500000001,"gps_lng":4.08255083333333,"city":"Les Istres-et-Bury"},{"id":18912,"zip_code":"51390","name":"TechTrove Video Games","gps_lat":49.21202311111112,"gps_lng":3.923698,"city":"Jouy-lès-Reims"},{"id":18926,"zip_code":"51230","name":"QuantumQuarters","gps_lat":48.73086720930232,"gps_lng":3.8539539534883698,"city":"Linthes"},{"id":18933,"zip_code":"51300","name":"PixelNest Gaming","gps_lat":48.70148536363636,"gps_lng":4.63474727272727,"city":"Luxémont-et-Villotte"},{"id":18960,"zip_code":"51300","name":"EpicEdge Gaming Zone","gps_lat":48.7553295081967,"gps_lng":4.66265729508197,"city":"Merlaut"},{"id":18967,"zip_code":"51240","name":"ChronoCircuit Games","gps_lat":48.93675662162163,"gps_lng":4.67271891891892,"city":"Moivre"},{"id":18972,"zip_code":"51260","name":"NeoPixel Nexus","gps_lat":48.59741816901411,"gps_lng":3.59386732394366,"city":"Montgenost"},{"id":18973,"zip_code":"51320","name":"GameCrafters Haven","gps_lat":48.7085611904762,"gps_lng":4.12505309523809,"city":"Montépreux"},{"id":19008,"zip_code":"51300","name":"PixelPulse Pro","gps_lat":48.7651380645161,"gps_lng":4.69119412903226,"city":"Outrepont"},{"id":19011,"zip_code":"51340","name":"WizardWorks Games","gps_lat":48.76880907608694,"gps_lng":4.85501385869565,"city":"Pargny-sur-Saulx"},{"id":19015,"zip_code":"51400","name":"PixelPrism Palace","gps_lat":49.1338153488372,"gps_lng":4.23207953488372,"city":"Les Petites-Loges"},{"id":19103,"zip_code":"51290","name":"QuestCraze Arcade","gps_lat":48.55193596774194,"gps_lng":4.47999564516129,"city":"Saint-Utin"},{"id":19125,"zip_code":"51600","name":"CosmicCart Video Games","gps_lat":49.24234961977187,"gps_lng":4.6108322053232005,"city":"Sommepy-Tahure"},{"id":19170,"zip_code":"51700","name":"ByteBurst Boutique","gps_lat":49.1168217647059,"gps_lng":3.72501168067227,"city":"Vandières"},{"id":19237,"zip_code":"52340","name":"RetroRush Zone","gps_lat":48.11242359999996,"gps_lng":5.3421013,"city":"Ageville"},{"id":19258,"zip_code":"52190","name":"GameFusion Guild","gps_lat":47.74208315217393,"gps_lng":5.17424543478261,"city":"Aujeurres"},{"id":19339,"zip_code":"52110","name":"NostalgiaSphere","gps_lat":48.33362506410256,"gps_lng":4.93435826923077,"city":"Cirey-sur-Blaise"},{"id":19366,"zip_code":"52400","name":"ArcaneAttic Emporium","gps_lat":47.94772151515151,"gps_lng":5.63691712121212,"city":"Damrémont"},{"id":19410,"zip_code":"52150","name":"PixelParadox Playhouse","gps_lat":48.11556325581395,"gps_lng":5.64313434108527,"city":"Germainvilliers"},{"id":19429,"zip_code":"52600","name":"GameFreak MegaStore","gps_lat":47.84934179878053,"gps_lng":5.53144597560976,"city":"Haute-Amance"},{"id":19475,"zip_code":"52300","name":"TechSprint Video Games","gps_lat":48.4910691891892,"gps_lng":5.06391927927928,"city":"Maizières"},{"id":19500,"zip_code":"52240","name":"CyberCraft Arcade","gps_lat":48.0859858,"gps_lng":5.543142,"city":"Val-de-Meuse"},{"id":19522,"zip_code":"52360","name":"VRVisions Haven","gps_lat":47.88222227272726,"gps_lng":5.42627795454546,"city":"Orbigny-au-Val"},{"id":19536,"zip_code":"52300","name":"GameBlitz Universe","gps_lat":48.51330669811321,"gps_lng":5.25392735849057,"city":"Paroy-sur-Saulx"},{"id":19558,"zip_code":"52700","name":"PixelWave Arcade","gps_lat":48.27830855072465,"gps_lng":5.5038039855072505,"city":"Prez-sous-Lafauche"},{"id":19734,"zip_code":"53100","name":"RetroRevival","gps_lat":48.26064368200834,"gps_lng":-0.6986839748954,"city":"Contest"},{"id":19780,"zip_code":"53160","name":"GameBurst Haven","gps_lat":48.24756531835208,"gps_lng":-0.49525756554307,"city":"Jublains"},{"id":19800,"zip_code":"53250","name":"TechTrove Video Games","gps_lat":48.47125063291138,"gps_lng":-0.37859689873418,"city":"Madré"},{"id":19832,"zip_code":"53360","name":"QuantumQuarters","gps_lat":47.88994765822784,"gps_lng":-0.8147505063291101,"city":"Peuton"},{"id":19847,"zip_code":"53470","name":"PixelNest Gaming","gps_lat":48.18003529411762,"gps_lng":-0.69894647058824,"city":"Sacé"},{"id":19927,"zip_code":"54740","name":"EpicEdge Gaming Zone","gps_lat":48.46103860869564,"gps_lng":6.16645347826087,"city":"Affracourt"},{"id":19958,"zip_code":"54150","name":"ChronoCircuit Games","gps_lat":49.29484729591834,"gps_lng":5.96818015306123,"city":"Avril"},{"id":20001,"zip_code":"54700","name":"NeoPixel Nexus","gps_lat":48.87726216666668,"gps_lng":6.05996991666667,"city":"Blénod-lès-Pont-à-Mousson"},{"id":20029,"zip_code":"54370","name":"GameCrafters Haven","gps_lat":48.69693597222223,"gps_lng":6.57292541666667,"city":"Bures"},{"id":20063,"zip_code":"54930","name":"PixelPulse Pro","gps_lat":48.36754594936709,"gps_lng":6.03123215189873,"city":"Courcelles"},{"id":20071,"zip_code":"54300","name":"WizardWorks Games","gps_lat":48.6129915469613,"gps_lng":6.57598751381216,"city":"Croismare"},{"id":20223,"zip_code":"54760","name":"PixelPrism Palace","gps_lat":48.80819164835166,"gps_lng":6.32075241758242,"city":"Lanfroicourt"},{"id":20322,"zip_code":"54170","name":"QuestCraze Arcade","gps_lat":48.59381568965517,"gps_lng":5.94980655172414,"city":"Ochey"},{"id":20334,"zip_code":"54330","name":"CosmicCart Video Games","gps_lat":48.52589481481483,"gps_lng":6.06118296296296,"city":"Parey-Saint-Césaire"},{"id":20340,"zip_code":"54540","name":"ByteBurst Boutique","gps_lat":48.46946282352937,"gps_lng":6.88402311764706,"city":"Pexonne"},{"id":20386,"zip_code":"54290","name":"RetroRush Zone","gps_lat":48.41648911111112,"gps_lng":6.42831407407407,"city":"Saint-Boingt"},{"id":20468,"zip_code":"54740","name":"GameFusion Guild","gps_lat":48.43842989999998,"gps_lng":6.205148,"city":"Vaudigny"},{"id":20474,"zip_code":"54540","name":"NostalgiaSphere","gps_lat":48.46184106060608,"gps_lng":6.81277242424242,"city":"Veney"},{"id":20482,"zip_code":"54620","name":"ArcaneAttic Emporium","gps_lat":49.41649274647889,"gps_lng":5.79683661971831,"city":"Ville-au-Montois"},{"id":20503,"zip_code":"54700","name":"PixelParadox Playhouse","gps_lat":48.97100576923076,"gps_lng":6.06069794871795,"city":"Vittonville"},{"id":20522,"zip_code":"55230","name":"GameFreak MegaStore","gps_lat":49.25474036764704,"gps_lng":5.64952058823529,"city":"Amel-sur-l'Étang"},{"id":20529,"zip_code":"55170","name":"TechSprint Video Games","gps_lat":48.63531627737226,"gps_lng":5.12989547445256,"city":"Aulnois-en-Perthois"},{"id":20633,"zip_code":"55800","name":"CyberCraft Arcade","gps_lat":48.77520897959181,"gps_lng":5.0331156122449,"city":"Couvonges"},{"id":20696,"zip_code":"55110","name":"VRVisions Haven","gps_lat":49.30542757009346,"gps_lng":5.05729336448598,"city":"Gesnes-en-Argonne"},{"id":20697,"zip_code":"55260","name":"GameBlitz Universe","gps_lat":48.8483894318182,"gps_lng":5.37172681818182,"city":"Gimécourt"},{"id":20709,"zip_code":"55000","name":"PixelWave Arcade","gps_lat":48.68926442176872,"gps_lng":5.0913362585034,"city":"Haironville"},{"id":20831,"zip_code":"55500","name":"RetroRevival","gps_lat":48.63214481203006,"gps_lng":5.37082834586466,"city":"Naix-aux-Forges"},{"id":20866,"zip_code":"55250","name":"GameBurst Haven","gps_lat":48.9611077142857,"gps_lng":5.14142466666667,"city":"Pretz-en-Argonne"},{"id":20968,"zip_code":"55270","name":"TechTrove Video Games","gps_lat":49.23128822429909,"gps_lng":5.01731869158878,"city":"Varennes-en-Argonne"},{"id":20969,"zip_code":"55300","name":"QuantumQuarters","gps_lat":48.8749825263158,"gps_lng":5.65982305263158,"city":"Varnéville"},{"id":20976,"zip_code":"55270","name":"PixelNest Gaming","gps_lat":49.20298357142854,"gps_lng":5.08317079365079,"city":"Vauquois"},{"id":21031,"zip_code":"56240","name":"EpicEdge Gaming Zone","gps_lat":47.98720660839161,"gps_lng":-3.38073465034965,"city":"Berné"},{"id":21047,"zip_code":"56130","name":"ChronoCircuit Games","gps_lat":47.47981266055046,"gps_lng":-2.40505844036697,"city":"Camoël"},{"id":21108,"zip_code":"56700","name":"NeoPixel Nexus","gps_lat":47.76889832740215,"gps_lng":-3.24699316725979,"city":"Kervignac"},{"id":21110,"zip_code":"56690","name":"GameCrafters Haven","gps_lat":47.76860872549015,"gps_lng":-3.1157118627451,"city":"Landévant"},{"id":21219,"zip_code":"56540","name":"PixelPulse Pro","gps_lat":48.03363438356166,"gps_lng":-3.34371534246575,"city":"Saint-Caradec-Trégomel"},{"id":21226,"zip_code":"56220","name":"WizardWorks Games","gps_lat":47.71914091463415,"gps_lng":-2.28963975609756,"city":"Saint-Gravé"},{"id":21231,"zip_code":"56350","name":"PixelPrism Palace","gps_lat":47.64242843478259,"gps_lng":-2.12356495652174,"city":"Saint-Jean-la-Poterie"},{"id":21242,"zip_code":"56510","name":"QuestCraze Arcade","gps_lat":47.52888639053257,"gps_lng":-3.14843766272189,"city":"Saint-Pierre-Quiberon"},{"id":21261,"zip_code":"56250","name":"CosmicCart Video Games","gps_lat":47.78491227488149,"gps_lng":-2.58476909952607,"city":"Trédion"},{"id":21274,"zip_code":"57560","name":"ByteBurst Boutique","gps_lat":48.61748186915884,"gps_lng":7.13661853582555,"city":"Abreschviller"},{"id":21390,"zip_code":"57570","name":"RetroRush Zone","gps_lat":49.41839054726373,"gps_lng":6.2310004477612,"city":"Cattenom"},{"id":21417,"zip_code":"57480","name":"GameFusion Guild","gps_lat":49.45403324324325,"gps_lng":6.35251216216216,"city":"Contz-les-Bains"},{"id":21429,"zip_code":"57340","name":"NostalgiaSphere","gps_lat":48.8897107017544,"gps_lng":6.5592729824561395,"city":"Dalhain"},{"id":21507,"zip_code":"57530","name":"ArcaneAttic Emporium","gps_lat":49.14045375,"gps_lng":6.34890397727273,"city":"Glatigny"},{"id":21535,"zip_code":"57220","name":"PixelParadox Playhouse","gps_lat":49.20727561904764,"gps_lng":6.44581323809524,"city":"Guinkirchen"},{"id":21557,"zip_code":"57230","name":"GameFreak MegaStore","gps_lat":49.08384870192306,"gps_lng":7.48972427884616,"city":"Haspelschiedt"},{"id":21649,"zip_code":"57810","name":"TechSprint Video Games","gps_lat":48.73598310344828,"gps_lng":6.6555627586207,"city":"Ley"},{"id":21651,"zip_code":"57630","name":"CyberCraft Arcade","gps_lat":48.75431905263159,"gps_lng":6.62314505263158,"city":"Lezey"},{"id":21696,"zip_code":"57530","name":"VRVisions Haven","gps_lat":49.09374399999999,"gps_lng":6.3069398,"city":"Marsilly"},{"id":21704,"zip_code":"57480","name":"GameBlitz Universe","gps_lat":49.4588609589041,"gps_lng":6.41248780821918,"city":"Merschweiller"},{"id":21705,"zip_code":"57550","name":"PixelWave Arcade","gps_lat":49.24725619999997,"gps_lng":6.6670989,"city":"Merten"},{"id":21726,"zip_code":"57480","name":"RetroRevival","gps_lat":49.40979517543862,"gps_lng":6.38777938596492,"city":"Montenach"},{"id":21767,"zip_code":"57170","name":"GameBurst Haven","gps_lat":48.85058619047619,"gps_lng":6.60056841269841,"city":"Obreck"},{"id":21880,"zip_code":"57400","name":"TechTrove Video Games","gps_lat":48.70100062500001,"gps_lng":7.07839166666667,"city":"Schneckenbusch"},{"id":21907,"zip_code":"57980","name":"QuantumQuarters","gps_lat":49.12379896551725,"gps_lng":6.92791126436782,"city":"Tenteling"},{"id":21928,"zip_code":"57380","name":"PixelNest Gaming","gps_lat":49.02125621052632,"gps_lng":6.63185389473684,"city":"Vahl-lès-Faulquemont"},{"id":21977,"zip_code":"57480","name":"EpicEdge Gaming Zone","gps_lat":49.41345950000001,"gps_lng":6.52461091666667,"city":"Waldwisse"},{"id":22039,"zip_code":"58530","name":"ChronoCircuit Games","gps_lat":47.42675222222223,"gps_lng":3.61832011111111,"city":"Brèves"},{"id":22079,"zip_code":"58500","name":"NeoPixel Nexus","gps_lat":47.46496405405404,"gps_lng":3.51167578378379,"city":"Clamecy"},{"id":22106,"zip_code":"58140","name":"GameCrafters Haven","gps_lat":47.34777999999998,"gps_lng":3.82103630434783,"city":"Empury"},{"id":22116,"zip_code":"58250","name":"PixelPulse Pro","gps_lat":46.81444871999999,"gps_lng":3.71767936,"city":"Fours"},{"id":22164,"zip_code":"58140","name":"WizardWorks Games","gps_lat":47.19701413978495,"gps_lng":3.85506827956989,"city":"Mhère"},{"id":22213,"zip_code":"58140","name":"PixelPrism Palace","gps_lat":47.32529266129033,"gps_lng":3.77954080645161,"city":"Pouques-Lormes"},{"id":22318,"zip_code":"59580","name":"QuestCraze Arcade","gps_lat":50.3308828169014,"gps_lng":3.25940436619718,"city":"Aniche"},{"id":22441,"zip_code":"59112","name":"CosmicCart Video Games","gps_lat":50.52058079365079,"gps_lng":2.95917333333333,"city":"Carnin"},{"id":22451,"zip_code":"59930","name":"ByteBurst Boutique","gps_lat":50.66686960526318,"gps_lng":2.88940302631579,"city":"La Chapelle-d'Armentières"},{"id":22532,"zip_code":"59300","name":"RetroRush Zone","gps_lat":50.31328392857143,"gps_lng":3.52737095238095,"city":"Famars"},{"id":22599,"zip_code":"59440","name":"GameFusion Guild","gps_lat":50.10516660714284,"gps_lng":3.91452142857143,"city":"Haut-Lieu"},{"id":22613,"zip_code":"59470","name":"NostalgiaSphere","gps_lat":50.88583803846154,"gps_lng":2.53242192307692,"city":"Herzeele"},{"id":22649,"zip_code":"59258","name":"ArcaneAttic Emporium","gps_lat":50.08957313432835,"gps_lng":3.27309402985075,"city":"Lesdain"},{"id":22774,"zip_code":"59840","name":"PixelParadox Playhouse","gps_lat":50.6614,"gps_lng":2.94819576923077,"city":"Prémesques"},{"id":22798,"zip_code":"59530","name":"GameFreak MegaStore","gps_lat":50.20840888888888,"gps_lng":3.65374555555555,"city":"Raucourt-au-Bois"},{"id":22923,"zip_code":"59188","name":"TechSprint Video Games","gps_lat":50.22397510638299,"gps_lng":3.39920255319149,"city":"Villers-en-Cauchies"},{"id":22953,"zip_code":"59136","name":"CyberCraft Arcade","gps_lat":50.57368168141591,"gps_lng":2.93670831858407,"city":"Wavrin"},{"id":22962,"zip_code":"59670","name":"VRVisions Haven","gps_lat":50.85588184079603,"gps_lng":2.57311049751244,"city":"Winnezeele"},{"id":22963,"zip_code":"59470","name":"GameBlitz Universe","gps_lat":50.88238253731342,"gps_lng":2.48412485074627,"city":"Wormhout"},{"id":22978,"zip_code":"60600","name":"PixelWave Arcade","gps_lat":49.42018791666666,"gps_lng":2.41496916666667,"city":"Airion"},{"id":23018,"zip_code":"60190","name":"RetroRevival","gps_lat":49.463434,"gps_lng":2.750712,"city":"Baugy"},{"id":23079,"zip_code":"60210","name":"GameBurst Haven","gps_lat":49.64581907407407,"gps_lng":1.89136518518519,"city":"Brombos"},{"id":23087,"zip_code":"60400","name":"TechTrove Video Games","gps_lat":49.62821652173913,"gps_lng":2.97999072463768,"city":"Bussy"},{"id":23126,"zip_code":"60280","name":"QuantumQuarters","gps_lat":49.44408538461538,"gps_lng":2.84581092307692,"city":"Clairoix"},{"id":23127,"zip_code":"60600","name":"PixelNest Gaming","gps_lat":49.37793351351351,"gps_lng":2.4131036036036,"city":"Clermont"},{"id":23253,"zip_code":"60210","name":"EpicEdge Gaming Zone","gps_lat":49.66542866666667,"gps_lng":1.93204166666667,"city":"Grandvilliers"},{"id":23271,"zip_code":"60690","name":"ChronoCircuit Games","gps_lat":49.58337861111113,"gps_lng":2.01271277777778,"city":"Haute-Épine"},{"id":23315,"zip_code":"60400","name":"NeoPixel Nexus","gps_lat":49.57236297297298,"gps_lng":2.95882567567568,"city":"Larbroye"},{"id":23323,"zip_code":"60420","name":"GameCrafters Haven","gps_lat":49.49799105263157,"gps_lng":2.53360289473684,"city":"Léglantiers"},{"id":23559,"zip_code":"60210","name":"PixelPulse Pro","gps_lat":49.69285133333332,"gps_lng":1.8169808,"city":"Saint-Thibault"},{"id":23560,"zip_code":"60410","name":"WizardWorks Games","gps_lat":49.2976518367347,"gps_lng":2.74772836734694,"city":"Saint-Vaast-de-Longmont"},{"id":23595,"zip_code":"60890","name":"PixelPrism Palace","gps_lat":49.14853542553192,"gps_lng":3.03420478723404,"city":"Thury-en-Valois"},{"id":23599,"zip_code":"60170","name":"QuestCraze Arcade","gps_lat":49.47310936,"gps_lng":3.01592448,"city":"Tracy-le-Mont"},{"id":23626,"zip_code":"60140","name":"CosmicCart Video Games","gps_lat":49.32760369565219,"gps_lng":2.49608521739131,"city":"Verderonne"},{"id":23714,"zip_code":"61120","name":"ByteBurst Boutique","gps_lat":48.89179733333334,"gps_lng":0.17000173333333,"city":"Camembert"},{"id":23757,"zip_code":"61360","name":"RetroRush Zone","gps_lat":48.47779284946238,"gps_lng":0.45852220430108,"city":"Coulimer"},{"id":23845,"zip_code":"61600","name":"GameFusion Guild","gps_lat":48.65059740740739,"gps_lng":-0.34000268518518995,"city":"Lonlay-le-Tesson"},{"id":23881,"zip_code":"61800","name":"NostalgiaSphere","gps_lat":48.83608765306122,"gps_lng":-0.6765137755102,"city":"Moncy"},{"id":23956,"zip_code":"61230","name":"ArcaneAttic Emporium","gps_lat":48.81108700000002,"gps_lng":0.31622888888889,"city":"Saint-Evroult-de-Montfort"},{"id":23998,"zip_code":"61250","name":"PixelParadox Playhouse","gps_lat":48.50050838709677,"gps_lng":0.02495935483871,"city":"Saint-Nicolas-des-Bois"},{"id":24027,"zip_code":"61200","name":"GameFreak MegaStore","gps_lat":48.77351825,"gps_lng":-0.020070875000000044,"city":"Sévigny"},{"id":24033,"zip_code":"61360","name":"TechSprint Video Games","gps_lat":48.36684221428571,"gps_lng":0.41094085714286,"city":"Suré"},{"id":24058,"zip_code":"61150","name":"CyberCraft Arcade","gps_lat":48.64487391534388,"gps_lng":-0.14995835978836003,"city":"Vieux-Pont"},{"id":24066,"zip_code":"62320","name":"VRVisions Haven","gps_lat":50.38476914285716,"gps_lng":2.88097171428571,"city":"Acheville"},{"id":24101,"zip_code":"62610","name":"GameBlitz Universe","gps_lat":50.86459789999999,"gps_lng":1.9828223999999999,"city":"Ardres"},{"id":24108,"zip_code":"62690","name":"PixelWave Arcade","gps_lat":50.35070074999999,"gps_lng":2.586619625,"city":"Aubigny-en-Artois"},{"id":24123,"zip_code":"62390","name":"RetroRevival","gps_lat":50.23172175732218,"gps_lng":2.11504585774059,"city":"Auxi-le-Château"},{"id":24297,"zip_code":"62231","name":"GameBurst Haven","gps_lat":50.9282539047619,"gps_lng":1.81734657142857,"city":"Coquelles"},{"id":24312,"zip_code":"62560","name":"TechTrove Video Games","gps_lat":50.60090462809919,"gps_lng":2.18192024793388,"city":"Coyecques"},{"id":24332,"zip_code":"62119","name":"QuantumQuarters","gps_lat":50.43828843283582,"gps_lng":2.98628828358209,"city":"Dourges"},{"id":24336,"zip_code":"62131","name":"GamingGalaxy","gps_lat":50.48826351851853,"gps_lng":2.63086537037037,"city":"Drouvin-le-Marais"},{"id":24358,"zip_code":"62650","name":"PixelPerfect Playhouse","gps_lat":50.585020721649514,"gps_lng":1.97399639175258,"city":"Ergny"},{"id":24404,"zip_code":"62232","name":"VirtualVoyage Arcade","gps_lat":50.52032956521739,"gps_lng":2.59958760869565,"city":"Fouquereuil"},{"id":24441,"zip_code":"62160","name":"RetroRocket Games","gps_lat":50.45197461538461,"gps_lng":2.74382519230769,"city":"Grenay"},{"id":24443,"zip_code":"62140","name":"GameStar Collective","gps_lat":50.38554826923077,"gps_lng":2.05839942307692,"city":"Grigny"},{"id":24458,"zip_code":"62760","name":"TechTide Video Games","gps_lat":50.15780549019608,"gps_lng":2.42076470588235,"city":"Halloy"},{"id":24484,"zip_code":"62130","name":"QuantumQuarters","gps_lat":50.33608736842104,"gps_lng":2.24906184210526,"city":"Héricourt"},{"id":24627,"zip_code":"62123","name":"PixelNest Gaming","gps_lat":50.237939375,"gps_lng":2.6241853125,"city":"Monchiet"},{"id":24747,"zip_code":"62170","name":"EpicEdge Gaming Zone","gps_lat":50.5219452631579,"gps_lng":1.78104671052632,"city":"Recques-sur-Course"},{"id":24830,"zip_code":"62860","name":"ChronoCircuit Games","gps_lat":50.24111872727271,"gps_lng":3.03425272727273,"city":"Saudemont"},{"id":24882,"zip_code":"62550","name":"NeoPixel Nexus","gps_lat":50.43387617021277,"gps_lng":2.38828053191489,"city":"Valhuon"},{"id":24887,"zip_code":"62124","name":"GameCrafters Haven","gps_lat":50.10180639999999,"gps_lng":2.9751316,"city":"Vélu"},{"id":24890,"zip_code":"62310","name":"PixelPulse Pro","gps_lat":50.49469078431374,"gps_lng":2.18149941176471,"city":"Verchin"},{"id":24910,"zip_code":"62138","name":"WizardWorks Games","gps_lat":50.53027217948717,"gps_lng":2.7785591025641,"city":"Violaines"},{"id":24930,"zip_code":"62130","name":"PixelPrism Palace","gps_lat":50.41105204545453,"gps_lng":2.28696102272727,"city":"Wavrans-sur-Ternoise"},{"id":24994,"zip_code":"63160","name":"QuestCraze Arcade","gps_lat":45.72631961538465,"gps_lng":3.33349198717949,"city":"Billom"},{"id":24996,"zip_code":"63112","name":"CosmicCart Video Games","gps_lat":45.82544956989248,"gps_lng":3.07358838709678,"city":"Blanzat"},{"id":25060,"zip_code":"63720","name":"ByteBurst Boutique","gps_lat":45.85196000000001,"gps_lng":3.25916914285714,"city":"Chavaroux"},{"id":25101,"zip_code":"63840","name":"RetroRush Zone","gps_lat":45.46279424528301,"gps_lng":3.87842278301887,"city":"Églisolles"},{"id":25110,"zip_code":"63570","name":"GameFusion Guild","gps_lat":45.4543267105263,"gps_lng":3.36495157894737,"city":"Esteil"},{"id":25116,"zip_code":"63980","name":"NostalgiaSphere","gps_lat":45.52151623376623,"gps_lng":3.59064532467532,"city":"Fournols"},{"id":25163,"zip_code":"63340","name":"ArcaneAttic Emporium","gps_lat":45.48297827956991,"gps_lng":3.16391580645161,"city":"Mareugheol"},{"id":25196,"zip_code":"63700","name":"PixelParadox Playhouse","gps_lat":46.16332581920906,"gps_lng":2.88644615819209,"city":"Moureuille"},{"id":25250,"zip_code":"63930","name":"GameFreak MegaStore","gps_lat":45.74689092233009,"gps_lng":3.70675184466019,"city":"La Renaudie"},{"id":25266,"zip_code":"63890","name":"TechSprint Video Games","gps_lat":45.57784179104478,"gps_lng":3.60973343283582,"city":"Saint-Amant-Roche-Savine"},{"id":25322,"zip_code":"63350","name":"CyberCraft Arcade","gps_lat":45.90253999999999,"gps_lng":3.29320101449275,"city":"Saint-Laure"},{"id":25324,"zip_code":"63600","name":"VRVisions Haven","gps_lat":45.51945627450979,"gps_lng":3.80067980392157,"city":"Saint-Martin-des-Olmes"},{"id":25350,"zip_code":"63310","name":"GameBlitz Universe","gps_lat":46.05112551867219,"gps_lng":3.40019008298755,"city":"Saint-Sylvestre-Pragoulin"},{"id":25399,"zip_code":"63710","name":"PixelWave Arcade","gps_lat":45.61331666666668,"gps_lng":2.9383587654321,"city":"Le Vernet-Sainte-Marguerite"},{"id":25459,"zip_code":"64200","name":"RetroRevival","gps_lat":43.42098936170213,"gps_lng":-1.51449021276596,"city":"Arcangues"},{"id":25465,"zip_code":"64410","name":"GameBurst Haven","gps_lat":43.54510797468355,"gps_lng":-0.53183012658228,"city":"Arget"},{"id":25502,"zip_code":"64390","name":"TechTrove Video Games","gps_lat":43.39675887323943,"gps_lng":-0.97768295774648,"city":"Autevielle-Saint-Martin-Bideren"},{"id":25552,"zip_code":"64510","name":"PixelPulse Pro","gps_lat":43.22975588235293,"gps_lng":-0.24514419117647002,"city":"Boeil-Bezing"},{"id":25567,"zip_code":"64800","name":"WizardWorks Games","gps_lat":43.12573314102563,"gps_lng":-0.29744012820513,"city":"Bruges-Capbis-Mifaget"},{"id":25569,"zip_code":"64120","name":"PixelPrism Palace","gps_lat":43.20408491666669,"gps_lng":-1.06306225,"city":"Bunus"},{"id":25570,"zip_code":"64390","name":"QuestCraze Arcade","gps_lat":43.41997574468087,"gps_lng":-0.90716695035461,"city":"Burgaronne"},{"id":25640,"zip_code":"64400","name":"CosmicCart Video Games","gps_lat":43.13605878260871,"gps_lng":-0.5842550434782601,"city":"Eysus"},{"id":25656,"zip_code":"64260","name":"ByteBurst Boutique","gps_lat":43.0225330107527,"gps_lng":-0.44628021505376003,"city":"Gère-Bélesten"},{"id":25672,"zip_code":"64800","name":"RetroRush Zone","gps_lat":43.16734699999999,"gps_lng":-0.32275994117647,"city":"Haut-de-Bosdarros"},{"id":25725,"zip_code":"64350","name":"GameFusion Guild","gps_lat":43.4810816891892,"gps_lng":-0.21527452702702998,"city":"Lannecaube"},{"id":25733,"zip_code":"64120","name":"NostalgiaSphere","gps_lat":43.286828,"gps_lng":-1.00489664285714,"city":"Larribar-Sorhapuru"},{"id":25734,"zip_code":"64440","name":"ArcaneAttic Emporium","gps_lat":42.90992024038467,"gps_lng":-0.42225853365385,"city":"Laruns"},{"id":25760,"zip_code":"64410","name":"PixelParadox Playhouse","gps_lat":43.47029680851065,"gps_lng":-0.41840223404254995,"city":"Lonçon"},{"id":25770,"zip_code":"64350","name":"GameFreak MegaStore","gps_lat":43.40408802197803,"gps_lng":-0.08409879120879005,"city":"Lucarré"},{"id":25805,"zip_code":"64360","name":"TechSprint Video Games","gps_lat":43.29330466410749,"gps_lng":-0.55831099808061,"city":"Monein"},{"id":25812,"zip_code":"64800","name":"CyberCraft Arcade","gps_lat":43.13528224358976,"gps_lng":-0.17667564102564004,"city":"Montaut"},{"id":25825,"zip_code":"64190","name":"VRVisions Haven","gps_lat":43.384363437500014,"gps_lng":-0.8271425,"city":"Narp"},{"id":25839,"zip_code":"64390","name":"GameBlitz Universe","gps_lat":43.40857149068324,"gps_lng":-0.84326652173913,"city":"Orriule"},{"id":25876,"zip_code":"64160","name":"PixelWave Arcade","gps_lat":43.40342860759492,"gps_lng":-0.23149392405062996,"city":"Riupeyrous"},{"id":25879,"zip_code":"64130","name":"RetroRevival","gps_lat":43.1961991025641,"gps_lng":-0.8374208974359,"city":"Roquiague"},{"id":25895,"zip_code":"64220","name":"GameBurst Haven","gps_lat":43.17445193548389,"gps_lng":-1.20598487455197,"city":"Saint-Jean-le-Vieux"},{"id":25929,"zip_code":"64121","name":"TechTrove Video Games","gps_lat":43.38251168269228,"gps_lng":-0.36810322115384997,"city":"Serres-Castet"},{"id":25972,"zip_code":"65100","name":"QuantumQuarters","gps_lat":43.14228476744186,"gps_lng":-0.018634999999999957,"city":"Adé"},{"id":26006,"zip_code":"65240","name":"PixelNest Gaming","gps_lat":42.93333476190477,"gps_lng":0.33466126984127,"city":"Aspin-Aure"},{"id":26026,"zip_code":"65200","name":"EpicEdge Gaming Zone","gps_lat":43.065093,"gps_lng":0.1491049,"city":"Bagnères-de-Bigorre"},{"id":26029,"zip_code":"65140","name":"ChronoCircuit Games","gps_lat":43.42936293333334,"gps_lng":0.12648413333333,"city":"Barbachen"},{"id":26071,"zip_code":"65350","name":"NeoPixel Nexus","gps_lat":43.3086205612245,"gps_lng":0.18801571428571,"city":"Bouilh-Péreuilh"},{"id":26076,"zip_code":"65460","name":"GameCrafters Haven","gps_lat":43.28058619999999,"gps_lng":0.0927338,"city":"Bours"},{"id":26132,"zip_code":"65130","name":"PixelPulse Pro","gps_lat":43.02077189473682,"gps_lng":0.29518178947368,"city":"Esparros"},{"id":26169,"zip_code":"65100","name":"WizardWorks Games","gps_lat":43.08860411764707,"gps_lng":0.02586450980392,"city":"Gez-ez-Angles"},{"id":26195,"zip_code":"65370","name":"PixelPrism Palace","gps_lat":43.01747651162791,"gps_lng":0.60276046511628,"city":"Izaourt"},{"id":26229,"zip_code":"65350","name":"QuestCraze Arcade","gps_lat":43.22838515957447,"gps_lng":0.16916765957447,"city":"Laslades"},{"id":26236,"zip_code":"65190","name":"CosmicCart Video Games","gps_lat":43.20252354166666,"gps_lng":0.19487375,"city":"Lhez"},{"id":26244,"zip_code":"65100","name":"ByteBurst Boutique","gps_lat":43.13892043478261,"gps_lng":-0.08560652173912997,"city":"Loubajac"},{"id":26336,"zip_code":"65220","name":"RetroRush Zone","gps_lat":43.29095766666666,"gps_lng":0.4028685,"city":"Puydarrieux"},{"id":26556,"zip_code":"66210","name":"GameFusion Guild","gps_lat":42.50996542857142,"gps_lng":2.12048171428571,"city":"Mont-Louis"},{"id":26595,"zip_code":"66360","name":"NostalgiaSphere","gps_lat":42.59040551020408,"gps_lng":2.16312,"city":"Railleu"},{"id":26650,"zip_code":"66300","name":"ArcaneAttic Emporium","gps_lat":42.55629264285717,"gps_lng":2.83939814285714,"city":"Tresserre"},{"id":26666,"zip_code":"66600","name":"PixelParadox Playhouse","gps_lat":42.86485651685393,"gps_lng":2.79851898876404,"city":"Vingrau"},{"id":26785,"zip_code":"67390","name":"GameFreak MegaStore","gps_lat":48.16328537037035,"gps_lng":7.49556703703704,"city":"Elsenheim"},{"id":26859,"zip_code":"67320","name":"TechSprint Video Games","gps_lat":48.84259830188682,"gps_lng":7.12354726415094,"city":"Hirschland"},{"id":26871,"zip_code":"67270","name":"CyberCraft Arcade","gps_lat":48.80233052631579,"gps_lng":7.63513719298246,"city":"Huttendorf"},{"id":26890,"zip_code":"67270","name":"VRVisions Haven","gps_lat":48.686009375,"gps_lng":7.58664895833334,"city":"Kienheim"},{"id":26980,"zip_code":"67150","name":"GameBlitz Universe","gps_lat":48.44804389830504,"gps_lng":7.6852086440678,"city":"Nordhouse"},{"id":27023,"zip_code":"67290","name":"PixelWave Arcade","gps_lat":48.91379974358974,"gps_lng":7.30592397435898,"city":"Puberg"},{"id":27160,"zip_code":"67440","name":"RetroRevival","gps_lat":48.68523107692307,"gps_lng":7.45577784615385,"city":"Westhouse-Marmoutier"},{"id":27175,"zip_code":"67370","name":"GameBurst Haven","gps_lat":48.65774324999997,"gps_lng":7.5071405,"city":"Wintzenheim-Kochersberg"},{"id":27185,"zip_code":"67700","name":"TechTrove Video Games","gps_lat":48.70844303571429,"gps_lng":7.45721946428571,"city":"Wolschheim"},{"id":27224,"zip_code":"68560","name":"QuantumQuarters","gps_lat":47.57703660194173,"gps_lng":7.27903893203884,"city":"Bettendorf"},{"id":27292,"zip_code":"68210","name":"PixelNest Gaming","gps_lat":47.69736017241379,"gps_lng":7.13832232758621,"city":"Gildwiller"},{"id":27345,"zip_code":"68510","name":"EpicEdge Gaming Zone","gps_lat":47.61558738095236,"gps_lng":7.44087261904762,"city":"Kappelen"},{"id":27375,"zip_code":"68720","name":"ChronoCircuit Games","gps_lat":47.65848323076924,"gps_lng":7.30085015384615,"city":"Luemschwiller"},{"id":27422,"zip_code":"68127","name":"NeoPixel Nexus","gps_lat":47.94734655913979,"gps_lng":7.3590520430107595,"city":"Oberentzen"},{"id":27452,"zip_code":"68400","name":"GameCrafters Haven","gps_lat":47.73977474226803,"gps_lng":7.36562257731959,"city":"Riedisheim"},{"id":27464,"zip_code":"68480","name":"PixelPulse Pro","gps_lat":47.53788836363636,"gps_lng":7.32783545454545,"city":"Roppentzwiller"},{"id":27488,"zip_code":"68290","name":"WizardWorks Games","gps_lat":47.79277163636365,"gps_lng":6.98858990909091,"city":"Sickert"},{"id":27515,"zip_code":"68230","name":"PixelPrism Palace","gps_lat":48.08543222222224,"gps_lng":7.2522337654321,"city":"Turckheim"},{"id":27611,"zip_code":"69430","name":"QuestCraze Arcade","gps_lat":46.17145559999999,"gps_lng":4.4885912,"city":"Chénelette"},{"id":27624,"zip_code":"69470","name":"CosmicCart Video Games","gps_lat":46.1058809,"gps_lng":4.312992,"city":"Cours"},{"id":27660,"zip_code":"69840","name":"ByteBurst Boutique","gps_lat":46.24308549180326,"gps_lng":4.70546319672131,"city":"Juliénas"},{"id":27706,"zip_code":"69460","name":"RetroRush Zone","gps_lat":46.09456307692307,"gps_lng":4.64326923076923,"city":"Odenas"},{"id":27712,"zip_code":"69310","name":"GameFusion Guild","gps_lat":45.70265439024391,"gps_lng":4.82114707317073,"city":"Pierre-Bénite"},{"id":27722,"zip_code":"69650","name":"NostalgiaSphere","gps_lat":45.91236189473685,"gps_lng":4.77258326315789,"city":"Quincieux"},{"id":27789,"zip_code":"69700","name":"ArcaneAttic Emporium","gps_lat":45.56797564814815,"gps_lng":4.6986725,"city":"Saint-Romain-en-Gier"},{"id":27800,"zip_code":"69510","name":"PixelParadox Playhouse","gps_lat":45.68498345132743,"gps_lng":4.6162255752212396,"city":"Thurins"},{"id":27849,"zip_code":"69125","name":"GameFreak MegaStore","gps_lat":45.7197776,"gps_lng":5.0852626,"city":"Colombier-Saugnieu"},{"id":27903,"zip_code":"70160","name":"TechSprint Video Games","gps_lat":47.78640118055554,"gps_lng":6.02105597222222,"city":"Baulay"},{"id":27916,"zip_code":"70500","name":"CyberCraft Arcade","gps_lat":47.83384954545454,"gps_lng":5.75316318181818,"city":"Betoncourt-sur-Mance"},{"id":27944,"zip_code":"70180","name":"VRVisions Haven","gps_lat":47.6063019607843,"gps_lng":5.73508019607843,"city":"Brotte-lès-Ray"},{"id":27985,"zip_code":"70190","name":"GameBlitz Universe","gps_lat":47.38428476190476,"gps_lng":5.97229095238095,"city":"Chaux-la-Lotière"},{"id":28004,"zip_code":"70120","name":"PixelWave Arcade","gps_lat":47.71025315068493,"gps_lng":5.90038602739726,"city":"Combeaufontaine"},{"id":28050,"zip_code":"70400","name":"RetroRevival","gps_lat":47.68844279411767,"gps_lng":6.7681863235294095,"city":"Errevet"},{"id":28343,"zip_code":"70700","name":"GameBurst Haven","gps_lat":47.42473765306123,"gps_lng":5.87408540816327,"city":"Velleclaire"},{"id":28388,"zip_code":"70130","name":"TechTrove Video Games","gps_lat":47.58751053333332,"gps_lng":5.96712826666667,"city":"Vy-le-Ferroux"},{"id":28389,"zip_code":"70200","name":"QuantumQuarters","gps_lat":47.64907791907515,"gps_lng":6.4402823699422,"city":"Vy-lès-Lure"},{"id":28409,"zip_code":"71500","name":"PixelNest Gaming","gps_lat":46.60254338983052,"gps_lng":5.12760129943503,"city":"Bantanges"},{"id":28411,"zip_code":"71540","name":"EpicEdge Gaming Zone","gps_lat":47.08256090909091,"gps_lng":4.32636196969697,"city":"Barnay"},{"id":28512,"zip_code":"71250","name":"ChronoCircuit Games","gps_lat":46.51553808219175,"gps_lng":4.56869,"city":"Chérizet"},{"id":28557,"zip_code":"71510","name":"NeoPixel Nexus","gps_lat":46.86382142857143,"gps_lng":4.64346098214286,"city":"Dennevy"},{"id":28576,"zip_code":"71510","name":"GameCrafters Haven","gps_lat":46.81012989743586,"gps_lng":4.54268333333334,"city":"Essertenne"},{"id":28633,"zip_code":"71870","name":"PixelPulse Pro","gps_lat":46.38435197080291,"gps_lng":4.8007603649635,"city":"Laizé"},{"id":28668,"zip_code":"71250","name":"WizardWorks Games","gps_lat":46.48990632075473,"gps_lng":4.67209254716981,"city":"Massilly"},{"id":28700,"zip_code":"71510","name":"PixelPrism Palace","gps_lat":46.79057709677422,"gps_lng":4.5874384516129,"city":"Morey"},{"id":28746,"zip_code":"71500","name":"QuestCraze Arcade","gps_lat":46.63650342723002,"gps_lng":5.2999288262910795,"city":"Ratte"},{"id":28845,"zip_code":"71390","name":"CosmicCart Video Games","gps_lat":46.70064205882353,"gps_lng":4.57574833333333,"city":"Saint-Privé"},{"id":28852,"zip_code":"71200","name":"ByteBurst Boutique","gps_lat":46.8380641509434,"gps_lng":4.42669509433962,"city":"Saint-Sernin-du-Bois"},{"id":28888,"zip_code":"71310","name":"RetroRush Zone","gps_lat":46.78837423664126,"gps_lng":5.23756049618321,"city":"Serley"},{"id":28975,"zip_code":"72260","name":"GameFusion Guild","gps_lat":48.26542153846155,"gps_lng":0.36077903846154,"city":"Avesnes-en-Saosnois"},{"id":28980,"zip_code":"72290","name":"NostalgiaSphere","gps_lat":48.17293194444449,"gps_lng":0.25088904761905,"city":"Ballon-Saint Mars"},{"id":29087,"zip_code":"72610","name":"ArcaneAttic Emporium","gps_lat":48.3588397,"gps_lng":0.1260448,"city":"Villeneuve-en-Perseigne"},{"id":29125,"zip_code":"72440","name":"PixelParadox Playhouse","gps_lat":47.93578439024389,"gps_lng":0.57396219512195,"city":"Maisoncelles"},{"id":29142,"zip_code":"72170","name":"GameFreak MegaStore","gps_lat":48.23911774193549,"gps_lng":0.20247564516129,"city":"Meurcé"},{"id":29148,"zip_code":"72230","name":"TechSprint Video Games","gps_lat":47.89869547008545,"gps_lng":0.19637290598291,"city":"Moncé-en-Belin"},{"id":29161,"zip_code":"72240","name":"CyberCraft Arcade","gps_lat":48.15687681818184,"gps_lng":-0.004883124999999988,"city":"Neuvillalais"},{"id":29273,"zip_code":"72460","name":"VRVisions Haven","gps_lat":48.1059696987952,"gps_lng":0.34999969879518,"city":"Sillé-le-Philippe"},{"id":29379,"zip_code":"73390","name":"GameBlitz Universe","gps_lat":45.56168826086957,"gps_lng":6.20982195652174,"city":"Chamousset"},{"id":29449,"zip_code":"73170","name":"PixelWave Arcade","gps_lat":45.64881419354837,"gps_lng":5.73196419354839,"city":"Loisieux"},{"id":29478,"zip_code":"73470","name":"RetroRevival","gps_lat":45.58777506493507,"gps_lng":5.79308376623377,"city":"Nances"},{"id":29536,"zip_code":"73300","name":"GameBurst Haven","gps_lat":45.2674265822785,"gps_lng":6.34058006329114,"city":"Saint-Jean-de-Maurienne"},{"id":29551,"zip_code":"73100","name":"TechTrove Video Games","gps_lat":45.72286174129354,"gps_lng":6.00397547263682,"city":"Saint-Offenge"},{"id":29586,"zip_code":"73110","name":"QuantumQuarters","gps_lat":45.5064927118644,"gps_lng":6.1520506779661,"city":"La Trinité"},{"id":29587,"zip_code":"73400","name":"PixelNest Gaming","gps_lat":45.77627778210116,"gps_lng":6.42871926070039,"city":"Ugine"},{"id":29673,"zip_code":"74270","name":"EpicEdge Gaming Zone","gps_lat":46.04957621951221,"gps_lng":6.02031475609756,"city":"Chavannaz"},{"id":29689,"zip_code":"74160","name":"ChronoCircuit Games","gps_lat":46.13630355263156,"gps_lng":6.15457592105263,"city":"Collonges-sous-Salève"},{"id":29724,"zip_code":"74130","name":"NeoPixel Nexus","gps_lat":46.11449960526315,"gps_lng":6.37212605263158,"city":"Faucigny"},{"id":29733,"zip_code":"74240","name":"GameCrafters Haven","gps_lat":46.1853665,"gps_lng":6.2046767,"city":"Gaillard"},{"id":29742,"zip_code":"74540","name":"PixelPulse Pro","gps_lat":45.79132503546101,"gps_lng":6.01003822695036,"city":"Héry-sur-Alby"},{"id":29769,"zip_code":"74150","name":"WizardWorks Games","gps_lat":45.82646040697674,"gps_lng":5.91357127906977,"city":"Massingy"},{"id":29789,"zip_code":"74560","name":"PixelPrism Palace","gps_lat":46.12057751824818,"gps_lng":6.20042437956204,"city":"La Muraz"},{"id":29837,"zip_code":"74800","name":"QuestCraze Arcade","gps_lat":46.06412246753249,"gps_lng":6.36307175324676,"city":"Saint-Pierre-en-Faucigny"},{"id":29864,"zip_code":"74230","name":"CosmicCart Video Games","gps_lat":45.88290900383137,"gps_lng":6.32085858237548,"city":"Thônes"},{"id":29881,"zip_code":"74160","name":"ByteBurst Boutique","gps_lat":46.08975240506329,"gps_lng":6.02807924050633,"city":"Vers"},{"id":29886,"zip_code":"74230","name":"RetroRush Zone","gps_lat":45.91379062992126,"gps_lng":6.37186251968504,"city":"Les Villards-sur-Thônes"},{"id":29909,"zip_code":"75010","name":"GameFusion Guild","gps_lat":48.8785618,"gps_lng":2.3603689,"city":"Paris"},{"id":29961,"zip_code":"76116","name":"NostalgiaSphere","gps_lat":49.43726568627449,"gps_lng":1.3138736274509801,"city":"Auzouville-sur-Ry"},{"id":30009,"zip_code":"76340","name":"ArcaneAttic Emporium","gps_lat":49.925606727272736,"gps_lng":1.63706878787879,"city":"Blangy-sur-Bresle"},{"id":30050,"zip_code":"76750","name":"PixelParadox Playhouse","gps_lat":49.58424396039602,"gps_lng":1.34191504950495,"city":"Buchy"},{"id":30078,"zip_code":"76660","name":"GameFreak MegaStore","gps_lat":49.81070927272727,"gps_lng":1.46978772727273,"city":"Clais"},{"id":30149,"zip_code":"76690","name":"TechSprint Video Games","gps_lat":49.60819409090909,"gps_lng":1.21528363636364,"city":"Esteville"},{"id":30191,"zip_code":"76560","name":"CyberCraft Arcade","gps_lat":49.75625733333333,"gps_lng":0.77967355555556,"city":"Fultot"},{"id":30193,"zip_code":"76870","name":"VRVisions Haven","gps_lat":49.65319524137931,"gps_lng":1.62465813793104,"city":"Gaillefontaine"},{"id":30201,"zip_code":"76110","name":"GameBlitz Universe","gps_lat":49.65080608695651,"gps_lng":0.44271347826087,"city":"Gonfreville-Caillot"},{"id":30237,"zip_code":"76440","name":"PixelWave Arcade","gps_lat":49.64434621621621,"gps_lng":1.6711698648648698,"city":"Haucourt"},{"id":30240,"zip_code":"76450","name":"RetroRevival","gps_lat":49.76245686567164,"gps_lng":0.75166925373134,"city":"Hautot-l'Auvray"},{"id":30250,"zip_code":"76840","name":"GameBurst Haven","gps_lat":49.47465092105262,"gps_lng":0.9535772368421,"city":"Hénouville"},{"id":30256,"zip_code":"76720","name":"TechTrove Video Games","gps_lat":49.73441589743592,"gps_lng":1.09936965811966,"city":"Heugleville-sur-Scie"},{"id":30332,"zip_code":"76510","name":"QuantumQuarters","gps_lat":49.84140972477063,"gps_lng":1.22603816513761,"city":"Meulers"},{"id":30341,"zip_code":"76290","name":"PixelNest Gaming","gps_lat":49.54352885000002,"gps_lng":0.1927977,"city":"Montivilliers"},{"id":30371,"zip_code":"76133","name":"EpicEdge Gaming Zone","gps_lat":49.59339835443036,"gps_lng":0.22160265822785,"city":"Notre-Dame-du-Bec"},{"id":30372,"zip_code":"76590","name":"ChronoCircuit Games","gps_lat":49.75154307692309,"gps_lng":1.12582876923077,"city":"Notre-Dame-du-Parc"},{"id":30373,"zip_code":"76390","name":"NeoPixel Nexus","gps_lat":49.77356461538462,"gps_lng":1.64838184615385,"city":"Nullemont"},{"id":30407,"zip_code":"76520","name":"GameCrafters Haven","gps_lat":49.35430211764706,"gps_lng":1.18968894117647,"city":"Quévreville-la-Poterie"},{"id":30411,"zip_code":"76210","name":"PixelPulse Pro","gps_lat":49.60016,"gps_lng":0.51878016129032,"city":"Raffetot"},{"id":30436,"zip_code":"76440","name":"WizardWorks Games","gps_lat":49.57902076335876,"gps_lng":1.47425839694656,"city":"Rouvray-Catillon"},{"id":30437,"zip_code":"76370","name":"PixelPrism Palace","gps_lat":49.89942138888888,"gps_lng":1.10144268518518,"city":"Rouxmesnil-Bouteilles"},{"id":30473,"zip_code":"76590","name":"QuestCraze Arcade","gps_lat":49.8346153164557,"gps_lng":1.17902835443038,"city":"Saint-Germain-d'Étables"},{"id":30474,"zip_code":"76690","name":"CosmicCart Video Games","gps_lat":49.57835980769232,"gps_lng":1.20751346153846,"city":"Saint-Germain-sous-Cailly"},{"id":30487,"zip_code":"76700","name":"ByteBurst Boutique","gps_lat":49.53195987341772,"gps_lng":0.26745037974684,"city":"Saint-Laurent-de-Brèvedent"},{"id":30506,"zip_code":"76290","name":"RetroRush Zone","gps_lat":49.53571310344827,"gps_lng":0.23282517241379,"city":"Saint-Martin-du-Manoir"},{"id":30614,"zip_code":"76280","name":"GameFusion Guild","gps_lat":49.61083705882353,"gps_lng":0.28442441176471,"city":"Vergetot"},{"id":30623,"zip_code":"76340","name":"NostalgiaSphere","gps_lat":49.82490022727271,"gps_lng":1.55654556818182,"city":"Villers-sous-Foucarmont"},{"id":30626,"zip_code":"76110","name":"ArcaneAttic Emporium","gps_lat":49.59101805555556,"gps_lng":0.35533694444444,"city":"Virville"},{"id":30734,"zip_code":"77820","name":"PixelParadox Playhouse","gps_lat":48.50085227941177,"gps_lng":2.80371132352941,"city":"Le Châtelet-en-Brie"},{"id":30749,"zip_code":"77320","name":"GameFreak MegaStore","gps_lat":48.76309663865548,"gps_lng":3.20208394957983,"city":"Choisy-en-Brie"},{"id":30823,"zip_code":"77130","name":"TechSprint Video Games","gps_lat":48.41925279999999,"gps_lng":2.9459239999999998,"city":"Forges"},{"id":30847,"zip_code":"77580","name":"CyberCraft Arcade","gps_lat":48.81406878378379,"gps_lng":2.94734371621622,"city":"Guérard"},{"id":30881,"zip_code":"77550","name":"VRVisions Haven","gps_lat":48.61822457142858,"gps_lng":2.70070257142857,"city":"Lissy"},{"id":30888,"zip_code":"77650","name":"GameBlitz Universe","gps_lat":48.51575898876406,"gps_lng":3.23616629213483,"city":"Longueville"},{"id":30909,"zip_code":"77120","name":"PixelWave Arcade","gps_lat":48.7670007142857,"gps_lng":3.03613642857143,"city":"Mauperthuis"},{"id":30919,"zip_code":"77990","name":"RetroRevival","gps_lat":49.01701056074765,"gps_lng":2.59546046728972,"city":"Le Mesnil-Amelot"},{"id":30971,"zip_code":"77134","name":"GameBurst Haven","gps_lat":48.45689343511451,"gps_lng":3.22140427480916,"city":"Les Ormes-sur-Voulzie"},{"id":31084,"zip_code":"77400","name":"TechTrove Video Games","gps_lat":48.89471731343284,"gps_lng":2.71173417910448,"city":"Thorigny-sur-Marne"},{"id":31101,"zip_code":"77370","name":"QuantumQuarters","gps_lat":48.5560095522388,"gps_lng":3.10997552238806,"city":"Vanvillé"},{"id":31116,"zip_code":"77710","name":"PixelNest Gaming","gps_lat":48.2049134951456,"gps_lng":2.92770757281553,"city":"Villebéon"},{"id":31214,"zip_code":"78270","name":"EpicEdge Gaming Zone","gps_lat":48.99012134328356,"gps_lng":1.48526910447761,"city":"Cravent"},{"id":31227,"zip_code":"78620","name":"ChronoCircuit Games","gps_lat":48.86905903846154,"gps_lng":2.06918865384615,"city":"L'Étang-la-Ville"},{"id":31233,"zip_code":"78910","name":"NeoPixel Nexus","gps_lat":48.85613739999999,"gps_lng":1.7419312,"city":"Flexanville"},{"id":31406,"zip_code":"78930","name":"GameCrafters Haven","gps_lat":48.926232278481,"gps_lng":1.6945398734177202,"city":"Villette"},{"id":31611,"zip_code":"79100","name":"PixelPulse Pro","gps_lat":47.05116701030929,"gps_lng":-0.15181690721649,"city":"Saint-Cyr-la-Lande"},{"id":31613,"zip_code":"79410","name":"WizardWorks Games","gps_lat":46.37644442176871,"gps_lng":-0.38763027210884005,"city":"Saint-Gelais"},{"id":31674,"zip_code":"79100","name":"PixelPrism Palace","gps_lat":46.93356756756756,"gps_lng":-0.13778666666667005,"city":"Taizé-Maulais"},{"id":31800,"zip_code":"80610","name":"QuestCraze Arcade","gps_lat":50.01869173333332,"gps_lng":2.119016,"city":"Bettencourt-Saint-Ouen"},{"id":31824,"zip_code":"80500","name":"CosmicCart Video Games","gps_lat":49.70219147058824,"gps_lng":2.57353602941176,"city":"Boussicourt"},{"id":31869,"zip_code":"80500","name":"ByteBurst Boutique","gps_lat":49.66464328125002,"gps_lng":2.4897178125,"city":"Cantigny"},{"id":31927,"zip_code":"80310","name":"RetroRush Zone","gps_lat":49.9624401234568,"gps_lng":2.09268,"city":"Crouy-Saint-Pierre"},{"id":31976,"zip_code":"80580","name":"GameFusion Guild","gps_lat":50.04532729729731,"gps_lng":1.87835310810811,"city":"Érondelle"},{"id":31997,"zip_code":"80470","name":"NostalgiaSphere","gps_lat":49.88544315789474,"gps_lng":2.17723543859649,"city":"Ferrières"},{"id":32010,"zip_code":"80540","name":"ArcaneAttic Emporium","gps_lat":49.86070210526317,"gps_lng":2.08604157894737,"city":"Fluy"},{"id":32014,"zip_code":"80140","name":"PixelParadox Playhouse","gps_lat":49.94757898550725,"gps_lng":1.80605753623188,"city":"Fontaine-le-Sec"},{"id":32049,"zip_code":"80700","name":"GameFreak MegaStore","gps_lat":49.74079121951219,"gps_lng":2.77973048780488,"city":"Fresnoy-lès-Roye"},{"id":32102,"zip_code":"80131","name":"TechSprint Video Games","gps_lat":49.84222195402298,"gps_lng":2.66569965517241,"city":"Harbonnières"},{"id":32116,"zip_code":"80260","name":"CyberCraft Arcade","gps_lat":50.02929961038961,"gps_lng":2.41639558441558,"city":"Hérissart"},{"id":32171,"zip_code":"80250","name":"VRVisions Haven","gps_lat":49.73276359374997,"gps_lng":2.38983515625,"city":"Louvrechy"},{"id":32179,"zip_code":"80135","name":"GameBlitz Universe","gps_lat":50.12696037735849,"gps_lng":2.0297458490566,"city":"Maison-Roland"},{"id":32207,"zip_code":"80350","name":"PixelWave Arcade","gps_lat":50.07032319148935,"gps_lng":1.40455265957447,"city":"Mers-les-Bains"},{"id":32225,"zip_code":"80260","name":"RetroRevival","gps_lat":49.98926724637679,"gps_lng":2.38076724637681,"city":"Molliens-au-Bois"},{"id":32256,"zip_code":"80140","name":"GameBurst Haven","gps_lat":49.92636559523809,"gps_lng":1.66596988095238,"city":"Neslette"},{"id":32392,"zip_code":"80490","name":"TechTrove Video Games","gps_lat":50.01266051724136,"gps_lng":1.9152587931034502,"city":"Sorel-en-Vimeu"},{"id":32508,"zip_code":"81630","name":"QuantumQuarters","gps_lat":43.8945140740741,"gps_lng":1.57536385185185,"city":"Beauvais-sur-Tescou"},{"id":32510,"zip_code":"81430","name":"PixelNest Gaming","gps_lat":43.91578118721462,"gps_lng":2.28020739726027,"city":"Bellegarde-Marsal"},{"id":32548,"zip_code":"81100","name":"EpicEdge Gaming Zone","gps_lat":43.61396951282056,"gps_lng":2.24108092307692,"city":"Castres"},{"id":32581,"zip_code":"81600","name":"ChronoCircuit Games","gps_lat":43.92026147435894,"gps_lng":1.893595,"city":"Gaillac"},{"id":32592,"zip_code":"81170","name":"NeoPixel Nexus","gps_lat":44.08616540697673,"gps_lng":1.8930304651162801,"city":"Labarthe-Bleys"},{"id":32618,"zip_code":"81300","name":"GameCrafters Haven","gps_lat":43.82707072368424,"gps_lng":2.03420361842105,"city":"Lasgraisses"},{"id":32665,"zip_code":"81300","name":"PixelPulse Pro","gps_lat":43.70485932584269,"gps_lng":2.02306134831461,"city":"Moulayrès"},{"id":32673,"zip_code":"81490","name":"WizardWorks Games","gps_lat":43.57620387500002,"gps_lng":2.357829,"city":"Noailhac"},{"id":32693,"zip_code":"81440","name":"PixelPrism Palace","gps_lat":43.68512109374997,"gps_lng":2.0679996875,"city":"Puycalvel"},{"id":32740,"zip_code":"81170","name":"QuestCraze Arcade","gps_lat":44.08615859459459,"gps_lng":2.00393978378378,"city":"Saint-Marcel-Campes"},{"id":32783,"zip_code":"81330","name":"CosmicCart Video Games","gps_lat":43.70545361111112,"gps_lng":2.42146239583333,"city":"Vabre"},{"id":32791,"zip_code":"81140","name":"ByteBurst Boutique","gps_lat":43.99270194690264,"gps_lng":1.83878398230089,"city":"Le Verdier"},{"id":32805,"zip_code":"82290","name":"RetroRush Zone","gps_lat":44.04314847222224,"gps_lng":1.27107875,"city":"Albefeuille-Lagarde"},{"id":32854,"zip_code":"82340","name":"GameFusion Guild","gps_lat":44.08678687224669,"gps_lng":0.77149440528634,"city":"Dunes"},{"id":32909,"zip_code":"82600","name":"NostalgiaSphere","gps_lat":43.89445718749999,"gps_lng":1.184160234375,"city":"Mas-Grenier"},{"id":32910,"zip_code":"82500","name":"ArcaneAttic Emporium","gps_lat":43.8048392039801,"gps_lng":0.92045587064677,"city":"Maubec"},{"id":32981,"zip_code":"82110","name":"PixelParadox Playhouse","gps_lat":44.26965161290322,"gps_lng":1.27175522580645,"city":"Sauveterre"},{"id":32984,"zip_code":"82500","name":"GameFreak MegaStore","gps_lat":43.92270439285713,"gps_lng":1.0365325,"city":"Sérignac"},{"id":33005,"zip_code":"83560","name":"TechSprint Video Games","gps_lat":43.58113884297521,"gps_lng":5.8009752892562,"city":"Artigues"},{"id":33071,"zip_code":"83510","name":"CyberCraft Arcade","gps_lat":43.48018845360828,"gps_lng":6.3515615120275,"city":"Lorgues"},{"id":33122,"zip_code":"83690","name":"VRVisions Haven","gps_lat":43.56006826086959,"gps_lng":6.23411065217392,"city":"Salernes"},{"id":33170,"zip_code":"84190","name":"GameBlitz Universe","gps_lat":44.12605282258068,"gps_lng":5.02942435483871,"city":"Beaumes-de-Venise"},{"id":33174,"zip_code":"84370","name":"PixelWave Arcade","gps_lat":44.04647416666668,"gps_lng":4.90938333333334,"city":"Bédarrides"},{"id":33175,"zip_code":"84410","name":"RetroRevival","gps_lat":44.13649430769231,"gps_lng":5.2427897948718,"city":"Bédoin"},{"id":33234,"zip_code":"84120","name":"GameBurst Haven","gps_lat":43.70275191919192,"gps_lng":5.64364515151515,"city":"Mirabeau"},{"id":33270,"zip_code":"84750","name":"TechTrove Video Games","gps_lat":43.86129015706805,"gps_lng":5.50975350785341,"city":"Saint-Martin-de-Castillon"},{"id":33323,"zip_code":"85170","name":"QuantumQuarters","gps_lat":46.81845131914897,"gps_lng":-1.52761455319149,"city":"Beaufou"},{"id":33327,"zip_code":"85170","name":"PixelCrafters Emporium","gps_lat":46.79292042194089,"gps_lng":-1.41567746835443,"city":"Bellevigny"},{"id":33343,"zip_code":"85120","name":"NerdNook Gaming","gps_lat":46.64816473958336,"gps_lng":-0.67813015625,"city":"Breuil-Barret"},{"id":33430,"zip_code":"85570","name":"GameHaven Haven","gps_lat":46.53875956521736,"gps_lng":-0.8717427173912999,"city":"Marsais-Sainte-Radégonde"},{"id":33502,"zip_code":"85150","name":"GameBlast Pro","gps_lat":46.63873041474652,"gps_lng":-1.63790723502304,"city":"Saint-Georges-de-Pointindoux"},{"id":33515,"zip_code":"85210","name":"PixelPlayground","gps_lat":46.5880636555891,"gps_lng":-1.0123010271903299,"city":"Saint-Juire-Champgillon"},{"id":33539,"zip_code":"85420","name":"EpicGamer Bazaar","gps_lat":46.39902715328467,"gps_lng":-0.7293656204379599,"city":"Saint-Pierre-le-Vieux"},{"id":33578,"zip_code":"86110","name":"ByteBlast Arcade","gps_lat":46.75699968749996,"gps_lng":0.15739479166667,"city":"Amberre"},{"id":33630,"zip_code":"86250","name":"RetroZone Universe","gps_lat":46.1906994017094,"gps_lng":0.40405837606838,"city":"La Chapelle-Bâton"},{"id":33643,"zip_code":"86300","name":"VirtualReality Video Games","gps_lat":46.55355777385158,"gps_lng":0.66356360424028,"city":"Chauvigny"},{"id":33662,"zip_code":"86120","name":"PixelFusion Arcade","gps_lat":47.01301529411766,"gps_lng":-0.056065294117650044,"city":"Curçay-sur-Dive"},{"id":33663,"zip_code":"86600","name":"QuantumQuarters","gps_lat":46.48781089430893,"gps_lng":0.03834617886179,"city":"Curzay-sur-Vonne"},{"id":33706,"zip_code":"86240","name":"PixelNest Gaming","gps_lat":46.51902833333334,"gps_lng":0.3025414,"city":"Ligugé"},{"id":33831,"zip_code":"86350","name":"EpicEdge Gaming Zone","gps_lat":46.28046480519483,"gps_lng":0.54621493506494,"city":"Usson-du-Poitou"},{"id":33885,"zip_code":"87140","name":"ChronoCircuit Games","gps_lat":46.00744224761903,"gps_lng":1.12620499047619,"city":"Chamboret"},{"id":33900,"zip_code":"87920","name":"NeoPixel Nexus","gps_lat":45.78280257352939,"gps_lng":1.24068419117647,"city":"Condat-sur-Vienne"},{"id":33922,"zip_code":"87400","name":"GameCrafters Haven","gps_lat":45.78717146938775,"gps_lng":1.45302020408163,"city":"La Geneytouse"},{"id":33995,"zip_code":"87510","name":"PixelPulse Pro","gps_lat":45.90823396825398,"gps_lng":1.14291177777778,"city":"Saint-Gence"},{"id":34086,"zip_code":"88170","name":"WizardWorks Games","gps_lat":48.3366564864865,"gps_lng":5.84763234234234,"city":"Balléville"},{"id":34178,"zip_code":"88700","name":"PixelPrism Palace","gps_lat":48.41356747747748,"gps_lng":6.56542243243243,"city":"Deinvillers"},{"id":34226,"zip_code":"88600","name":"QuestCraze Arcade","gps_lat":48.22185952702701,"gps_lng":6.59072195945946,"city":"Fontenay"},{"id":34250,"zip_code":"88390","name":"CosmicCart Video Games","gps_lat":48.22975948275862,"gps_lng":6.33802129310345,"city":"Gigney"},{"id":34269,"zip_code":"88450","name":"ByteBurst Boutique","gps_lat":48.29947958333332,"gps_lng":6.27286458333333,"city":"Gugney-aux-Aulx"},{"id":34374,"zip_code":"88700","name":"RetroRush Zone","gps_lat":48.39957116666665,"gps_lng":6.675717,"city":"Nossoncourt"},{"id":34381,"zip_code":"88330","name":"GameFusion Guild","gps_lat":48.29409677083331,"gps_lng":6.4469975,"city":"Pallegney"},{"id":34411,"zip_code":"88110","name":"NostalgiaSphere","gps_lat":48.40789650537632,"gps_lng":6.86542940860215,"city":"Raon-l'Étape"},{"id":34496,"zip_code":"88150","name":"ArcaneAttic Emporium","gps_lat":48.25138513661204,"gps_lng":6.41569355191257,"city":"Capavenir Vosges"},{"id":34549,"zip_code":"88500","name":"PixelParadox Playhouse","gps_lat":48.27002506666668,"gps_lng":6.0172172,"city":"Viviers-lès-Offroicourt"},{"id":34579,"zip_code":"89160","name":"GameFreak MegaStore","gps_lat":47.82165217391302,"gps_lng":4.11210449275362,"city":"Argentenay"},{"id":34581,"zip_code":"89500","name":"TechSprint Video Games","gps_lat":48.04850679999998,"gps_lng":3.3344511,"city":"Armeau"},{"id":34602,"zip_code":"89700","name":"CyberCraft Arcade","gps_lat":47.80421692307691,"gps_lng":3.88865938461538,"city":"Béru"},{"id":34699,"zip_code":"89500","name":"VRVisions Haven","gps_lat":48.11245374999999,"gps_lng":3.18015486842105,"city":"Égriselles-le-Bocage"},{"id":34704,"zip_code":"89210","name":"GameBlitz Universe","gps_lat":48.01405975,"gps_lng":3.56613541666666,"city":"Esnon"},{"id":34740,"zip_code":"89250","name":"PixelWave Arcade","gps_lat":47.87689642487045,"gps_lng":3.5621351813471502,"city":"Gurgy"},{"id":34747,"zip_code":"89360","name":"RetroRevival","gps_lat":47.96273352272727,"gps_lng":3.78636522727273,"city":"Jaulges"},{"id":34752,"zip_code":"89160","name":"GameBurst Haven","gps_lat":47.77039707070708,"gps_lng":4.30078252525253,"city":"Jully"},{"id":34754,"zip_code":"89290","name":"TechTrove Video Games","gps_lat":47.71602329545456,"gps_lng":3.5715622727272702,"city":"Jussy"},{"id":34756,"zip_code":"89560","name":"QuantumQuarters","gps_lat":47.61148785714288,"gps_lng":3.34509657142857,"city":"Lain"},{"id":34772,"zip_code":"89200","name":"PixelNest Gaming","gps_lat":47.56559,"gps_lng":3.89110123595506,"city":"Lucy-le-Bois"},{"id":34775,"zip_code":"89200","name":"EpicEdge Gaming Zone","gps_lat":47.46749406474824,"gps_lng":3.97328043165468,"city":"Magny"},{"id":34968,"zip_code":"89300","name":"ChronoCircuit Games","gps_lat":48.01362515151516,"gps_lng":3.33488272727273,"city":"Villecien"},{"id":34969,"zip_code":"89240","name":"NeoPixel Nexus","gps_lat":47.79050355555555,"gps_lng":3.48805777777778,"city":"Villefargeau"},{"id":34970,"zip_code":"89140","name":"GameCrafters Haven","gps_lat":48.29573898550726,"gps_lng":3.16806463768116,"city":"Villemanoche"},{"id":35031,"zip_code":"90400","name":"PixelPulse Pro","gps_lat":47.58708357142855,"gps_lng":6.84120625,"city":"Dorans"},{"id":35118,"zip_code":"91870","name":"WizardWorks Games","gps_lat":48.4862188,"gps_lng":2.09180432,"city":"Boissy-le-Sec"},{"id":35177,"zip_code":"91470","name":"PixelPrism Palace","gps_lat":48.62272657657657,"gps_lng":2.08098027027027,"city":"Forges-les-Bains"},{"id":35187,"zip_code":"91430","name":"QuestCraze Arcade","gps_lat":48.73663467532468,"gps_lng":2.22330012987013,"city":"Igny"},{"id":35211,"zip_code":"91490","name":"CosmicCart Video Games","gps_lat":48.43638799999999,"gps_lng":2.44150677777778,"city":"Moigny-sur-École"},{"id":35258,"zip_code":"91280","name":"ByteBurst Boutique","gps_lat":48.60581261363636,"gps_lng":2.51104386363636,"city":"Saint-Pierre-du-Perray"},{"id":35263,"zip_code":"91160","name":"RetroRush Zone","gps_lat":48.68950492063493,"gps_lng":2.2676680952381,"city":"Saulx-les-Chartreux"},{"id":35314,"zip_code":"92300","name":"GameFusion Guild","gps_lat":48.895157,"gps_lng":2.286202,"city":"Levallois-Perret"},{"id":35400,"zip_code":"94310","name":"NostalgiaSphere","gps_lat":48.74261685714286,"gps_lng":2.400232,"city":"Orly"},{"id":35416,"zip_code":"94800","name":"ArcaneAttic Emporium","gps_lat":48.79371447761196,"gps_lng":2.35819104477612,"city":"Villejuif"},{"id":35450,"zip_code":"95500","name":"PixelParadox Playhouse","gps_lat":48.96476151898735,"gps_lng":2.43140113924051,"city":"Bonneuil-en-France"},{"id":35451,"zip_code":"95570","name":"GameFreak MegaStore","gps_lat":49.04182057692307,"gps_lng":2.29859269230769,"city":"Bouffémont"},{"id":35475,"zip_code":"95830","name":"TechSprint Video Games","gps_lat":49.11261931818182,"gps_lng":2.01605806818182,"city":"Cormeilles-en-Vexin"},{"id":35533,"zip_code":"95540","name":"CyberCraft Arcade","gps_lat":49.05484739583332,"gps_lng":2.1721996875,"city":"Méry-sur-Oise"},{"id":35640,"zip_code":"97114","name":"VRVisions Haven","gps_lat":15.98159707317074,"gps_lng":-61.64831783536584,"city":"Trois-Rivières"},{"id":35644,"zip_code":"97217","name":"GameBlitz Universe","gps_lat":14.50102484496124,"gps_lng":-61.075751937984506,"city":"Les Anses-d'Arlet"},{"id":35754,"zip_code":"97630","name":"PixelWave Arcade","gps_lat":-12.66898692556634,"gps_lng":45.0634606472492,"city":"Mtsamboro"},{"id":35819,"zip_code":"98735","name":"RetroRevival","gps_lat":-16.7215582,"gps_lng":-151.4492168,"city":"Uturoa"},{"id":35821,"zip_code":"98812","name":"GameBurst Haven","gps_lat":-21.8629851,"gps_lng":166.0509591,"city":"Bouloupari"}]